{"type": "FeatureCollection", "crs": "EPSG:4326", "features": [{"type": "Feature", "geometry": {"type": "Point", "coordinates": [127.09980979663021, 37.39077120663659]}, "properties": {"NODE_ID": "2060105401", "NODE_NAME": "판교동568-16", "NODE_TYPE": "101"}}, {"type": "Feature", "geometry": {"type": "Point", "coordinates": [127.11155338338865, 37.404388396380675]}, "properties": {"NODE_ID": "2060107002", "NODE_NAME": "삼평동698-1", "NODE_TYPE": "101"}}, {"type": "Feature", "geometry": {"type": "Point", "coordinates": [127.11281049593552, 37.39379319821563]}, "properties": {"NODE_ID": "2060065704", "NODE_NAME": "마이알레현대백화점판교점", "NODE_TYPE": "101"}}, {"type": "Feature", "geometry": {"type": "Point", "coordinates": [127.0968151284705, 37.40237175066068]}, "properties": {"NODE_ID": "2060302600", "NODE_NAME": "판교동 508-9", "NODE_TYPE": "101"}}, {"type": "Feature", "geometry": {"type": "Point", "coordinates": [127.09605402058367, 37.40671865507535]}, "properties": {"NODE_ID": "2060311600", "NODE_NAME": "최소노드배치점", "NODE_TYPE": "107"}}, {"type": "Feature", "geometry": {"type": "Point", "coordinates": [127.10370022462963, 37.40555459304314]}, "properties": {"NODE_ID": "2060106704", "NODE_NAME": "삼평동698-1", "NODE_TYPE": "101"}}, {"type": "Feature", "geometry": {"type": "Point", "coordinates": [127.11687130266792, 37.3933873283302]}, "properties": {"NODE_ID": "2060065501", "NODE_NAME": "보평중고사거리", "NODE_TYPE": "101"}}, {"type": "Feature", "geometry": {"type": "Point", "coordinates": [127.11307089924001, 37.39165049091671]}, "properties": {"NODE_ID": "2060059202", "NODE_NAME": "느티나무사거리", "NODE_TYPE": "101"}}, {"type": "Feature", "geometry": {"type": "Point", "coordinates": [127.10976273630972, 37.40237855424811]}, "properties": {"NODE_ID": "2060066917", "NODE_NAME": "삼환하이펙스A동", "NODE_TYPE": "101"}}, {"type": "Feature", "geometry": {"type": "Point", "coordinates": [127.11282823230754, 37.39836236899225]}, "properties": {"NODE_ID": "2060066404", "NODE_NAME": "봇들교사거리", "NODE_TYPE": "101"}}, {"type": "Feature", "geometry": {"type": "Point", "coordinates": [127.10974465603609, 37.40404978110271]}, "properties": {"NODE_ID": "2060106901", "NODE_NAME": "판교테크노14사거리", "NODE_TYPE": "101"}}, {"type": "Feature", "geometry": {"type": "Point", "coordinates": [127.10016248070431, 37.401656339737926]}, "properties": {"NODE_ID": "2060067503", "NODE_NAME": "판교디지털센터", "NODE_TYPE": "101"}}, {"type": "Feature", "geometry": {"type": "Point", "coordinates": [127.11285891503488, 37.39246087064586]}, "properties": {"NODE_ID": "2060272900", "NODE_NAME": "최소노드배치점", "NODE_TYPE": "107"}}, {"type": "Feature", "geometry": {"type": "Point", "coordinates": [127.10839677951756, 37.39987908519151]}, "properties": {"NODE_ID": "2060060314", "NODE_NAME": "삼평동 667-7", "NODE_TYPE": "101"}}, {"type": "Feature", "geometry": {"type": "Point", "coordinates": [127.0982369844773, 37.39470154202565]}, "properties": {"NODE_ID": "2060099408", "NODE_NAME": "판교동512-4", "NODE_TYPE": "101"}}, {"type": "Feature", "geometry": {"type": "Point", "coordinates": [127.1040896337881, 37.391523648364256]}, "properties": {"NODE_ID": "2060153400", "NODE_NAME": "백현동 521-4", "NODE_TYPE": "101"}}, {"type": "Feature", "geometry": {"type": "Point", "coordinates": [127.09926625508947, 37.39078007335862]}, "properties": {"NODE_ID": "2060223600", "NODE_NAME": "판교동 564-10", "NODE_TYPE": "101"}}, {"type": "Feature", "geometry": {"type": "Point", "coordinates": [127.10177359198414, 37.39113316581718]}, "properties": {"NODE_ID": "2060262000", "NODE_NAME": "최소노드배치점", "NODE_TYPE": "107"}}, {"type": "Feature", "geometry": {"type": "Point", "coordinates": [127.09902949841886, 37.40367643593841]}, "properties": {"NODE_ID": "2060068102", "NODE_NAME": "우림W-CITY", "NODE_TYPE": "101"}}, {"type": "Feature", "geometry": {"type": "Point", "coordinates": [127.09602595891381, 37.40014128143998]}, "properties": {"NODE_ID": "2060105901", "NODE_NAME": "판교동511-7", "NODE_TYPE": "101"}}, {"type": "Feature", "geometry": {"type": "Point", "coordinates": [127.10673554862983, 37.407604759167135]}, "properties": {"NODE_ID": "2040153201", "NODE_NAME": "성남시수정구-성남시분당구", "NODE_TYPE": "105"}}, {"type": "Feature", "geometry": {"type": "Point", "coordinates": [127.10564049676044, 37.39438925928449]}, "properties": {"NODE_ID": "2060059601", "NODE_NAME": "판교IC앞사거리", "NODE_TYPE": "101"}}, {"type": "Feature", "geometry": {"type": "Point", "coordinates": [127.10975013696066, 37.3937149220178]}, "properties": {"NODE_ID": "2060065602", "NODE_NAME": "환승주차장삼거리", "NODE_TYPE": "101"}}, {"type": "Feature", "geometry": {"type": "Point", "coordinates": [127.11306364242078, 37.393792956441935]}, "properties": {"NODE_ID": "2060065701", "NODE_NAME": "마이알레현대백화점판교점", "NODE_TYPE": "101"}}, {"type": "Feature", "geometry": {"type": "Point", "coordinates": [127.10180173431858, 37.39164626443296]}, "properties": {"NODE_ID": "2060114800", "NODE_NAME": "교량(남측)", "NODE_TYPE": "104"}}, {"type": "Feature", "geometry": {"type": "Point", "coordinates": [127.09967432774712, 37.39077390195706]}, "properties": {"NODE_ID": "2060105404", "NODE_NAME": "판교동568-16", "NODE_TYPE": "101"}}, {"type": "Feature", "geometry": {"type": "Point", "coordinates": [127.09626508773934, 37.39827067371724]}, "properties": {"NODE_ID": "2060060108", "NODE_NAME": "낙원중삼거리", "NODE_TYPE": "101"}}, {"type": "Feature", "geometry": {"type": "Point", "coordinates": [127.1128105945262, 37.3937160916883]}, "properties": {"NODE_ID": "2060065703", "NODE_NAME": "마이알레현대백화점판교점", "NODE_TYPE": "101"}}, {"type": "Feature", "geometry": {"type": "Point", "coordinates": [127.09917895003055, 37.39710233616205]}, "properties": {"NODE_ID": "2060289500", "NODE_NAME": "판교동 509-11", "NODE_TYPE": "101"}}, {"type": "Feature", "geometry": {"type": "Point", "coordinates": [127.1168910053229, 37.40141629845026]}, "properties": {"NODE_ID": "2060296400", "NODE_NAME": "삼평동 718-7", "NODE_TYPE": "101"}}, {"type": "Feature", "geometry": {"type": "Point", "coordinates": [127.100269544291, 37.4051465938892]}, "properties": {"NODE_ID": "2060068304", "NODE_NAME": "판교실리콘파크", "NODE_TYPE": "101"}}, {"type": "Feature", "geometry": {"type": "Point", "coordinates": [127.10706216132564, 37.396186654619314]}, "properties": {"NODE_ID": "2060059802", "NODE_NAME": "화랑공원삼거리", "NODE_TYPE": "101"}}, {"type": "Feature", "geometry": {"type": "Point", "coordinates": [127.11401755092335, 37.39836488052985]}, "properties": {"NODE_ID": "2060066504", "NODE_NAME": "동안삼거리", "NODE_TYPE": "101"}}, {"type": "Feature", "geometry": {"type": "Point", "coordinates": [127.09948898890747, 37.390671862046744]}, "properties": {"NODE_ID": "2060184400", "NODE_NAME": "판교동 568-16", "NODE_TYPE": "101"}}, {"type": "Feature", "geometry": {"type": "Point", "coordinates": [127.11677808030068, 37.39830661987182]}, "properties": {"NODE_ID": "2060066603", "NODE_NAME": "구숯내삼거리", "NODE_TYPE": "101"}}, {"type": "Feature", "geometry": {"type": "Point", "coordinates": [127.10258883380871, 37.4009790095173]}, "properties": {"NODE_ID": "2060067301", "NODE_NAME": "판교테크노10사거리", "NODE_TYPE": "101"}}, {"type": "Feature", "geometry": {"type": "Point", "coordinates": [127.1140918971603, 37.398302408220495]}, "properties": {"NODE_ID": "2060066502", "NODE_NAME": "동안삼거리", "NODE_TYPE": "101"}}, {"type": "Feature", "geometry": {"type": "Point", "coordinates": [127.10035535658604, 37.394678552837256]}, "properties": {"NODE_ID": "2060106402", "NODE_NAME": "판교동558-8", "NODE_TYPE": "101"}}, {"type": "Feature", "geometry": {"type": "Point", "coordinates": [127.11677275974898, 37.39617457680116]}, "properties": {"NODE_ID": "2060065903", "NODE_NAME": "보평초교사거리", "NODE_TYPE": "101"}}, {"type": "Feature", "geometry": {"type": "Point", "coordinates": [127.11857163079013, 37.4082927797665]}, "properties": {"NODE_ID": "2060047403", "NODE_NAME": "벌말지하차도삼거리", "NODE_TYPE": "101"}}, {"type": "Feature", "geometry": {"type": "Point", "coordinates": [127.11859724536242, 37.40849083675448]}, "properties": {"NODE_ID": "2060047404", "NODE_NAME": "벌말지하차도삼거리", "NODE_TYPE": "101"}}, {"type": "Feature", "geometry": {"type": "Point", "coordinates": [127.10118747925584, 37.39980439990105]}, "properties": {"NODE_ID": "2060066803", "NODE_NAME": "판교세븐벤처밸리2단지", "NODE_TYPE": "101"}}, {"type": "Feature", "geometry": {"type": "Point", "coordinates": [127.11306750086723, 37.39625158888605]}, "properties": {"NODE_ID": "2060066007", "NODE_NAME": "판교역사거리", "NODE_TYPE": "101"}}, {"type": "Feature", "geometry": {"type": "Point", "coordinates": [127.10033067426784, 37.40510245179784]}, "properties": {"NODE_ID": "2060068303", "NODE_NAME": "판교실리콘파크", "NODE_TYPE": "101"}}, {"type": "Feature", "geometry": {"type": "Point", "coordinates": [127.10477891736163, 37.403280278635684]}, "properties": {"NODE_ID": "2060060809", "NODE_NAME": "판교테크노중앙사거리", "NODE_TYPE": "101"}}, {"type": "Feature", "geometry": {"type": "Point", "coordinates": [127.11615204360818, 37.404252166231124]}, "properties": {"NODE_ID": "2060109603", "NODE_NAME": "송현초교사거리", "NODE_TYPE": "101"}}, {"type": "Feature", "geometry": {"type": "Point", "coordinates": [127.09779140237421, 37.39069322947172]}, "properties": {"NODE_ID": "2060058104", "NODE_NAME": "로저아트갤러리", "NODE_TYPE": "101"}}, {"type": "Feature", "geometry": {"type": "Point", "coordinates": [127.11158398206227, 37.39714575746767]}, "properties": {"NODE_ID": "2060107603", "NODE_NAME": "코트야드메리어트판교호텔", "NODE_TYPE": "101"}}, {"type": "Feature", "geometry": {"type": "Point", "coordinates": [127.11899740857457, 37.405365138667456]}, "properties": {"NODE_ID": "2060044903", "NODE_NAME": "벌말사거리", "NODE_TYPE": "101"}}, {"type": "Feature", "geometry": {"type": "Point", "coordinates": [127.11540502766118, 37.405878619689496]}, "properties": {"NODE_ID": "2060109404", "NODE_NAME": "삼평동행정복지센터", "NODE_TYPE": "101"}}, {"type": "Feature", "geometry": {"type": "Point", "coordinates": [127.09982009796343, 37.39110782450464]}, "properties": {"NODE_ID": "2060196300", "NODE_NAME": "판교동 568-15", "NODE_TYPE": "101"}}, {"type": "Feature", "geometry": {"type": "Point", "coordinates": [127.09815770299726, 37.39078904558648]}, "properties": {"NODE_ID": "2060199100", "NODE_NAME": "판교동 561-7", "NODE_TYPE": "101"}}, {"type": "Feature", "geometry": {"type": "Point", "coordinates": [127.10203833030559, 37.39104881526595]}, "properties": {"NODE_ID": "2060262100", "NODE_NAME": "최소노드배치점", "NODE_TYPE": "107"}}, {"type": "Feature", "geometry": {"type": "Point", "coordinates": [127.10941761533284, 37.390327427877146]}, "properties": {"NODE_ID": "2060264400", "NODE_NAME": "최소노드배치점", "NODE_TYPE": "107"}}, {"type": "Feature", "geometry": {"type": "Point", "coordinates": [127.09638354054492, 37.40019305192201]}, "properties": {"NODE_ID": "2060105802", "NODE_NAME": "판교동511-8", "NODE_TYPE": "101"}}, {"type": "Feature", "geometry": {"type": "Point", "coordinates": [127.1168728366143, 37.39615968269742]}, "properties": {"NODE_ID": "2060065902", "NODE_NAME": "보평초교사거리", "NODE_TYPE": "101"}}, {"type": "Feature", "geometry": {"type": "Point", "coordinates": [127.10033667359714, 37.39478697716066]}, "properties": {"NODE_ID": "2060106401", "NODE_NAME": "판교동558-8", "NODE_TYPE": "101"}}, {"type": "Feature", "geometry": {"type": "Point", "coordinates": [127.10405408071195, 37.39308230013271]}, "properties": {"NODE_ID": "2060059502", "NODE_NAME": "화랑지하차도", "NODE_TYPE": "106"}}, {"type": "Feature", "geometry": {"type": "Point", "coordinates": [127.11999952248921, 37.399298461823534]}, "properties": {"NODE_ID": "2060042601", "NODE_NAME": "매송2교", "NODE_TYPE": "101"}}, {"type": "Feature", "geometry": {"type": "Point", "coordinates": [127.09864151905225, 37.392787743718834]}, "properties": {"NODE_ID": "2060134800", "NODE_NAME": "판교동 550-8", "NODE_TYPE": "101"}}, {"type": "Feature", "geometry": {"type": "Point", "coordinates": [127.11400670782827, 37.39618298100507]}, "properties": {"NODE_ID": "2060066103", "NODE_NAME": "판교푸르지오월드마크아파트", "NODE_TYPE": "101"}}, {"type": "Feature", "geometry": {"type": "Point", "coordinates": [127.11569663036562, 37.404743907892374]}, "properties": {"NODE_ID": "2060109504", "NODE_NAME": "송현초교사거리", "NODE_TYPE": "101"}}, {"type": "Feature", "geometry": {"type": "Point", "coordinates": [127.102512502517, 37.4054986572011]}, "properties": {"NODE_ID": "2060068402", "NODE_NAME": "화랑지하차도", "NODE_TYPE": "104"}}, {"type": "Feature", "geometry": {"type": "Point", "coordinates": [127.09983906077746, 37.3959819991458]}, "properties": {"NODE_ID": "2060286300", "NODE_NAME": "판교동 544-14", "NODE_TYPE": "101"}}, {"type": "Feature", "geometry": {"type": "Point", "coordinates": [127.09673832833371, 37.39839897619863]}, "properties": {"NODE_ID": "2060286600", "NODE_NAME": "판교동 532-2", "NODE_TYPE": "101"}}, {"type": "Feature", "geometry": {"type": "Point", "coordinates": [127.109295202606, 37.39037837766186]}, "properties": {"NODE_ID": "2060264500", "NODE_NAME": "최소노드배치점", "NODE_TYPE": "107"}}, {"type": "Feature", "geometry": {"type": "Point", "coordinates": [127.10417020191353, 37.39314978246868]}, "properties": {"NODE_ID": "2060059501", "NODE_NAME": "화랑지하차도", "NODE_TYPE": "106"}}, {"type": "Feature", "geometry": {"type": "Point", "coordinates": [127.11281406893345, 37.39617722120164]}, "properties": {"NODE_ID": "2060066009", "NODE_NAME": "판교역사거리", "NODE_TYPE": "101"}}, {"type": "Feature", "geometry": {"type": "Point", "coordinates": [127.09813323667805, 37.40683050515034]}, "properties": {"NODE_ID": "2040000201", "NODE_NAME": "판교JC", "NODE_TYPE": "106"}}, {"type": "Feature", "geometry": {"type": "Point", "coordinates": [127.11281774852083, 37.391641236222405]}, "properties": {"NODE_ID": "2060059203", "NODE_NAME": "느티나무사거리", "NODE_TYPE": "101"}}, {"type": "Feature", "geometry": {"type": "Point", "coordinates": [127.09926635955694, 37.3927806617363]}, "properties": {"NODE_ID": "2060190900", "NODE_NAME": "판교동 556-6", "NODE_TYPE": "101"}}, {"type": "Feature", "geometry": {"type": "Point", "coordinates": [127.11393901616756, 37.39988325856427]}, "properties": {"NODE_ID": "2060294000", "NODE_NAME": "삼평동 726-2", "NODE_TYPE": "101"}}, {"type": "Feature", "geometry": {"type": "Point", "coordinates": [127.11540338230812, 37.40676571461266]}, "properties": {"NODE_ID": "2060299900", "NODE_NAME": "삼평동 709-1", "NODE_TYPE": "101"}}, {"type": "Feature", "geometry": {"type": "Point", "coordinates": [127.11401394283101, 37.39765870157791]}, "properties": {"NODE_ID": "2060301000", "NODE_NAME": "삼평동 739-1", "NODE_TYPE": "101"}}, {"type": "Feature", "geometry": {"type": "Point", "coordinates": [127.11785017919334, 37.39626280413847]}, "properties": {"NODE_ID": "2060307700", "NODE_NAME": "삼평동 743-2", "NODE_TYPE": "101"}}, {"type": "Feature", "geometry": {"type": "Point", "coordinates": [127.09551184341247, 37.40036362744117]}, "properties": {"NODE_ID": "2060060411", "NODE_NAME": "성내미사거리", "NODE_TYPE": "101"}}, {"type": "Feature", "geometry": {"type": "Point", "coordinates": [127.11282755486404, 37.398297921915244]}, "properties": {"NODE_ID": "2060066403", "NODE_NAME": "봇들교사거리", "NODE_TYPE": "101"}}, {"type": "Feature", "geometry": {"type": "Point", "coordinates": [127.1128200766011, 37.39713914840233]}, "properties": {"NODE_ID": "2060066005", "NODE_NAME": "판교역사거리", "NODE_TYPE": "101"}}, {"type": "Feature", "geometry": {"type": "Point", "coordinates": [127.10959450613376, 37.39371554580126]}, "properties": {"NODE_ID": "2060065603", "NODE_NAME": "환승주차장삼거리", "NODE_TYPE": "101"}}, {"type": "Feature", "geometry": {"type": "Point", "coordinates": [127.10707938325596, 37.396260764651956]}, "properties": {"NODE_ID": "2060059801", "NODE_NAME": "화랑공원삼거리", "NODE_TYPE": "101"}}, {"type": "Feature", "geometry": {"type": "Point", "coordinates": [127.11680391646112, 37.40268339256812]}, "properties": {"NODE_ID": "2060295800", "NODE_NAME": "삼평동 718-7", "NODE_TYPE": "101"}}, {"type": "Feature", "geometry": {"type": "Point", "coordinates": [127.10368364600967, 37.39988430058111]}, "properties": {"NODE_ID": "2060060306", "NODE_NAME": "판교환경생태학습원", "NODE_TYPE": "101"}}, {"type": "Feature", "geometry": {"type": "Point", "coordinates": [127.1012147658188, 37.39159255113681]}, "properties": {"NODE_ID": "2060105601", "NODE_NAME": "판교동560-12", "NODE_TYPE": "106"}}, {"type": "Feature", "geometry": {"type": "Point", "coordinates": [127.10287300077968, 37.39566639177442]}, "properties": {"NODE_ID": "2060094902", "NODE_NAME": "속성변화점", "NODE_TYPE": "103"}}, {"type": "Feature", "geometry": {"type": "Point", "coordinates": [127.11676921764072, 37.391813912264205]}, "properties": {"NODE_ID": "2060059303", "NODE_NAME": "동판교로사거리", "NODE_TYPE": "101"}}, {"type": "Feature", "geometry": {"type": "Point", "coordinates": [127.10656648160034, 37.40393704168857]}, "properties": {"NODE_ID": "2060106802", "NODE_NAME": "판교테크노밸리스타트업캠퍼스", "NODE_TYPE": "101"}}, {"type": "Feature", "geometry": {"type": "Point", "coordinates": [127.11222142400433, 37.39714619332148]}, "properties": {"NODE_ID": "2060107503", "NODE_NAME": "판교역푸르지오시티", "NODE_TYPE": "101"}}, {"type": "Feature", "geometry": {"type": "Point", "coordinates": [127.09715054536025, 37.40207361474496]}, "properties": {"NODE_ID": "2060282400", "NODE_NAME": "판교동 508-9", "NODE_TYPE": "101"}}, {"type": "Feature", "geometry": {"type": "Point", "coordinates": [127.11496414440545, 37.396254219694825]}, "properties": {"NODE_ID": "2060297000", "NODE_NAME": "삼평동 740-1", "NODE_TYPE": "101"}}, {"type": "Feature", "geometry": {"type": "Point", "coordinates": [127.11408827923616, 37.39765843577522]}, "properties": {"NODE_ID": "2060301100", "NODE_NAME": "삼평동 739-1", "NODE_TYPE": "101"}}, {"type": "Feature", "geometry": {"type": "Point", "coordinates": [127.11576383815864, 37.40464987931687]}, "properties": {"NODE_ID": "2060109503", "NODE_NAME": "송현초교사거리", "NODE_TYPE": "101"}}, {"type": "Feature", "geometry": {"type": "Point", "coordinates": [127.10251827003171, 37.40310015868648]}, "properties": {"NODE_ID": "2060067903", "NODE_NAME": "낙생고가차도(동측)", "NODE_TYPE": "104"}}, {"type": "Feature", "geometry": {"type": "Point", "coordinates": [127.10085908241066, 37.40083983506036]}, "properties": {"NODE_ID": "2060067202", "NODE_NAME": "판교세븐벤처밸리1단지", "NODE_TYPE": "101"}}, {"type": "Feature", "geometry": {"type": "Point", "coordinates": [127.10975561476359, 37.39778515941028]}, "properties": {"NODE_ID": "2060066306", "NODE_NAME": "코트야드바이메리어트(판교)", "NODE_TYPE": "101"}}, {"type": "Feature", "geometry": {"type": "Point", "coordinates": [127.10960190782222, 37.401003470687236]}, "properties": {"NODE_ID": "2060066907", "NODE_NAME": "삼환하이펙스B동", "NODE_TYPE": "101"}}, {"type": "Feature", "geometry": {"type": "Point", "coordinates": [127.09592612586877, 37.40057345059486]}, "properties": {"NODE_ID": "2060060415", "NODE_NAME": "판교박물관", "NODE_TYPE": "101"}}, {"type": "Feature", "geometry": {"type": "Point", "coordinates": [127.10153201493684, 37.408543087992825]}, "properties": {"NODE_ID": "2060098801", "NODE_NAME": "금토대교(동측)", "NODE_TYPE": "104"}}, {"type": "Feature", "geometry": {"type": "Point", "coordinates": [127.10102721473774, 37.39065520807849]}, "properties": {"NODE_ID": "2060105502", "NODE_NAME": "판교동560-11", "NODE_TYPE": "102"}}, {"type": "Feature", "geometry": {"type": "Point", "coordinates": [127.11235694489265, 37.39725342545049]}, "properties": {"NODE_ID": "2060107501", "NODE_NAME": "판교역푸르지오시티", "NODE_TYPE": "101"}}, {"type": "Feature", "geometry": {"type": "Point", "coordinates": [127.11306722466003, 37.396177793942236]}, "properties": {"NODE_ID": "2060066008", "NODE_NAME": "판교역사거리", "NODE_TYPE": "101"}}, {"type": "Feature", "geometry": {"type": "Point", "coordinates": [127.09645011373225, 37.398243589509796]}, "properties": {"NODE_ID": "2060060106", "NODE_NAME": "낙원중삼거리", "NODE_TYPE": "101"}}, {"type": "Feature", "geometry": {"type": "Point", "coordinates": [127.10279760971393, 37.40645575930209]}, "properties": {"NODE_ID": "2060279800", "NODE_NAME": "삼평동 698-1", "NODE_TYPE": "101"}}, {"type": "Feature", "geometry": {"type": "Point", "coordinates": [127.10974698052739, 37.394458965725576]}, "properties": {"NODE_ID": "2060158600", "NODE_NAME": "백현동 531-1", "NODE_TYPE": "101"}}, {"type": "Feature", "geometry": {"type": "Point", "coordinates": [127.09939229046988, 37.396734302089854]}, "properties": {"NODE_ID": "2060289100", "NODE_NAME": "판교동 509-11", "NODE_TYPE": "101"}}, {"type": "Feature", "geometry": {"type": "Point", "coordinates": [127.09633555331186, 37.39975053897286]}, "properties": {"NODE_ID": "2060106101", "NODE_NAME": "낙원중학교", "NODE_TYPE": "101"}}, {"type": "Feature", "geometry": {"type": "Point", "coordinates": [127.09626974686336, 37.400134325181526]}, "properties": {"NODE_ID": "2060105803", "NODE_NAME": "판교동511-8", "NODE_TYPE": "101"}}, {"type": "Feature", "geometry": {"type": "Point", "coordinates": [127.10296420511165, 37.395751382355115]}, "properties": {"NODE_ID": "2060094901", "NODE_NAME": "속성변화점", "NODE_TYPE": "103"}}, {"type": "Feature", "geometry": {"type": "Point", "coordinates": [127.10013585293174, 37.39514201666202]}, "properties": {"NODE_ID": "2060132500", "NODE_NAME": "판교동 509-11", "NODE_TYPE": "101"}}, {"type": "Feature", "geometry": {"type": "Point", "coordinates": [127.0974366639959, 37.401768434382205]}, "properties": {"NODE_ID": "2060276900", "NODE_NAME": "판교동 507-17", "NODE_TYPE": "101"}}, {"type": "Feature", "geometry": {"type": "Point", "coordinates": [127.10613198168177, 37.39486286216358]}, "properties": {"NODE_ID": "2060269800", "NODE_NAME": "최소노드배치점", "NODE_TYPE": "107"}}, {"type": "Feature", "geometry": {"type": "Point", "coordinates": [127.10622036918191, 37.39481855497779]}, "properties": {"NODE_ID": "2060269900", "NODE_NAME": "최소노드배치점", "NODE_TYPE": "107"}}, {"type": "Feature", "geometry": {"type": "Point", "coordinates": [127.09901077775754, 37.40376997206948]}, "properties": {"NODE_ID": "2060068104", "NODE_NAME": "우림W-CITY", "NODE_TYPE": "101"}}, {"type": "Feature", "geometry": {"type": "Point", "coordinates": [127.09803524181702, 37.39639559689175]}, "properties": {"NODE_ID": "2060283400", "NODE_NAME": "판교동 512-4", "NODE_TYPE": "101"}}, {"type": "Feature", "geometry": {"type": "Point", "coordinates": [127.11671667820367, 37.403725364293116]}, "properties": {"NODE_ID": "2060292400", "NODE_NAME": "삼평동 718-7", "NODE_TYPE": "101"}}, {"type": "Feature", "geometry": {"type": "Point", "coordinates": [127.10381921044417, 37.3998842952301]}, "properties": {"NODE_ID": "2060060303", "NODE_NAME": "판교환경생태학습원", "NODE_TYPE": "101"}}, {"type": "Feature", "geometry": {"type": "Point", "coordinates": [127.10973869603784, 37.396261874937984]}, "properties": {"NODE_ID": "2060066201", "NODE_NAME": "동안사거리", "NODE_TYPE": "101"}}, {"type": "Feature", "geometry": {"type": "Point", "coordinates": [127.10958539243215, 37.39626241022298]}, "properties": {"NODE_ID": "2060066204", "NODE_NAME": "동안사거리", "NODE_TYPE": "101"}}, {"type": "Feature", "geometry": {"type": "Point", "coordinates": [127.095626289351, 37.400421591546156]}, "properties": {"NODE_ID": "2060060408", "NODE_NAME": "성내미사거리", "NODE_TYPE": "101"}}, {"type": "Feature", "geometry": {"type": "Point", "coordinates": [127.1064307640122, 37.404045161772]}, "properties": {"NODE_ID": "2060106804", "NODE_NAME": "판교테크노밸리스타트업캠퍼스", "NODE_TYPE": "101"}}, {"type": "Feature", "geometry": {"type": "Point", "coordinates": [127.10251088077122, 37.40234369438071]}, "properties": {"NODE_ID": "2060067703", "NODE_NAME": "판교디지털센터C동", "NODE_TYPE": "101"}}, {"type": "Feature", "geometry": {"type": "Point", "coordinates": [127.09613246643423, 37.4005159037853]}, "properties": {"NODE_ID": "2060060413", "NODE_NAME": "판교박물관", "NODE_TYPE": "101"}}, {"type": "Feature", "geometry": {"type": "Point", "coordinates": [127.10259389308317, 37.40310400212793]}, "properties": {"NODE_ID": "2060067902", "NODE_NAME": "낙생고가차도(동측)", "NODE_TYPE": "104"}}, {"type": "Feature", "geometry": {"type": "Point", "coordinates": [127.11677290765536, 37.39624822721374]}, "properties": {"NODE_ID": "2060065904", "NODE_NAME": "보평초교사거리", "NODE_TYPE": "101"}}, {"type": "Feature", "geometry": {"type": "Point", "coordinates": [127.10261052846083, 37.40562474120347]}, "properties": {"NODE_ID": "2060068401", "NODE_NAME": "화랑지하차도", "NODE_TYPE": "104"}}, {"type": "Feature", "geometry": {"type": "Point", "coordinates": [127.1200146640021, 37.39918986593091]}, "properties": {"NODE_ID": "2060042602", "NODE_NAME": "매송2교", "NODE_TYPE": "101"}}, {"type": "Feature", "geometry": {"type": "Point", "coordinates": [127.1003791886918, 37.405169136609814]}, "properties": {"NODE_ID": "2060068302", "NODE_NAME": "판교실리콘파크", "NODE_TYPE": "101"}}, {"type": "Feature", "geometry": {"type": "Point", "coordinates": [127.11283016055852, 37.39988413165285]}, "properties": {"NODE_ID": "2060060504", "NODE_NAME": "삼평사거리", "NODE_TYPE": "101"}}, {"type": "Feature", "geometry": {"type": "Point", "coordinates": [127.10683117107264, 37.3962406597151]}, "properties": {"NODE_ID": "2060059803", "NODE_NAME": "화랑공원삼거리", "NODE_TYPE": "101"}}, {"type": "Feature", "geometry": {"type": "Point", "coordinates": [127.0972633921902, 37.408757755876415]}, "properties": {"NODE_ID": "2049141100", "NODE_NAME": "금토동 288-8", "NODE_TYPE": "101"}}, {"type": "Feature", "geometry": {"type": "Point", "coordinates": [127.09768741816997, 37.40146547052712]}, "properties": {"NODE_ID": "2060067404", "NODE_NAME": "낙생고가차도(서측)", "NODE_TYPE": "101"}}, {"type": "Feature", "geometry": {"type": "Point", "coordinates": [127.10145582114663, 37.40863250954621]}, "properties": {"NODE_ID": "2060098802", "NODE_NAME": "금토대교(동측)", "NODE_TYPE": "104"}}, {"type": "Feature", "geometry": {"type": "Point", "coordinates": [127.10380876358998, 37.40561934996164]}, "properties": {"NODE_ID": "2060106701", "NODE_NAME": "삼평동698-1", "NODE_TYPE": "101"}}, {"type": "Feature", "geometry": {"type": "Point", "coordinates": [127.09809607018137, 37.39480530654239]}, "properties": {"NODE_ID": "2060099410", "NODE_NAME": "판교동512-4", "NODE_TYPE": "101"}}, {"type": "Feature", "geometry": {"type": "Point", "coordinates": [127.10128841000837, 37.39980565783592]}, "properties": {"NODE_ID": "2060066802", "NODE_NAME": "판교세븐벤처밸리2단지", "NODE_TYPE": "101"}}, {"type": "Feature", "geometry": {"type": "Point", "coordinates": [127.10860204198734, 37.396187672811735]}, "properties": {"NODE_ID": "2060294300", "NODE_NAME": "삼평동 641-3", "NODE_TYPE": "101"}}, {"type": "Feature", "geometry": {"type": "Point", "coordinates": [127.11304834336785, 37.39938835507631]}, "properties": {"NODE_ID": "2060311800", "NODE_NAME": "최소노드배치점", "NODE_TYPE": "107"}}, {"type": "Feature", "geometry": {"type": "Point", "coordinates": [127.10368312272668, 37.399815619789976]}, "properties": {"NODE_ID": "2060060305", "NODE_NAME": "판교환경생태학습원", "NODE_TYPE": "101"}}, {"type": "Feature", "geometry": {"type": "Point", "coordinates": [127.11860936167892, 37.4085195510379]}, "properties": {"NODE_ID": "2060047702", "NODE_NAME": "벌말지하차도(북측)", "NODE_TYPE": "104"}}, {"type": "Feature", "geometry": {"type": "Point", "coordinates": [127.09560388365666, 37.40024803261951]}, "properties": {"NODE_ID": "2060060410", "NODE_NAME": "성내미사거리", "NODE_TYPE": "101"}}, {"type": "Feature", "geometry": {"type": "Point", "coordinates": [127.09598247367506, 37.39999170022938]}, "properties": {"NODE_ID": "2060105903", "NODE_NAME": "판교동511-7", "NODE_TYPE": "101"}}, {"type": "Feature", "geometry": {"type": "Point", "coordinates": [127.09837816172707, 37.39922723193435]}, "properties": {"NODE_ID": "2060278800", "NODE_NAME": "판교동 528-3", "NODE_TYPE": "101"}}, {"type": "Feature", "geometry": {"type": "Point", "coordinates": [127.1095936570908, 37.394458500314066]}, "properties": {"NODE_ID": "2060158700", "NODE_NAME": "백현동 531-1", "NODE_TYPE": "101"}}, {"type": "Feature", "geometry": {"type": "Point", "coordinates": [127.09961724553541, 37.39637605729163]}, "properties": {"NODE_ID": "2060299700", "NODE_NAME": "판교동 543-12", "NODE_TYPE": "101"}}, {"type": "Feature", "geometry": {"type": "Point", "coordinates": [127.09641087304688, 37.39966065186387]}, "properties": {"NODE_ID": "2060106102", "NODE_NAME": "낙원중학교", "NODE_TYPE": "101"}}, {"type": "Feature", "geometry": {"type": "Point", "coordinates": [127.09777908424742, 37.40135033618914]}, "properties": {"NODE_ID": "2060067403", "NODE_NAME": "낙생고가차도(서측)", "NODE_TYPE": "101"}}, {"type": "Feature", "geometry": {"type": "Point", "coordinates": [127.11158398090208, 37.39725388338864]}, "properties": {"NODE_ID": "2060107604", "NODE_NAME": "코트야드메리어트판교호텔", "NODE_TYPE": "101"}}, {"type": "Feature", "geometry": {"type": "Point", "coordinates": [127.1123569397853, 37.397833515553586]}, "properties": {"NODE_ID": "2060107801", "NODE_NAME": "속성변화점", "NODE_TYPE": "103"}}, {"type": "Feature", "geometry": {"type": "Point", "coordinates": [127.11687381816829, 37.399879778512776]}, "properties": {"NODE_ID": "2060067001", "NODE_NAME": "삼평중삼거리", "NODE_TYPE": "101"}}, {"type": "Feature", "geometry": {"type": "Point", "coordinates": [127.10381925793924, 37.3998155868999]}, "properties": {"NODE_ID": "2060060304", "NODE_NAME": "판교환경생태학습원", "NODE_TYPE": "101"}}, {"type": "Feature", "geometry": {"type": "Point", "coordinates": [127.09890813999569, 37.399426645828676]}, "properties": {"NODE_ID": "2060106302", "NODE_NAME": "판교동509-10", "NODE_TYPE": "101"}}, {"type": "Feature", "geometry": {"type": "Point", "coordinates": [127.09571830997385, 37.40030602109721]}, "properties": {"NODE_ID": "2060060409", "NODE_NAME": "성내미사거리", "NODE_TYPE": "101"}}, {"type": "Feature", "geometry": {"type": "Point", "coordinates": [127.1130739222359, 37.397246235898244]}, "properties": {"NODE_ID": "2060066003", "NODE_NAME": "판교역사거리", "NODE_TYPE": "101"}}, {"type": "Feature", "geometry": {"type": "Point", "coordinates": [127.10049485766845, 37.39387491858578]}, "properties": {"NODE_ID": "2060106501", "NODE_NAME": "판교동558-8", "NODE_TYPE": "102"}}, {"type": "Feature", "geometry": {"type": "Point", "coordinates": [127.09967254015714, 37.392668178956754]}, "properties": {"NODE_ID": "2060099413", "NODE_NAME": "판교동559-7", "NODE_TYPE": "101"}}, {"type": "Feature", "geometry": {"type": "Point", "coordinates": [127.10258811788925, 37.400870873904104]}, "properties": {"NODE_ID": "2060067302", "NODE_NAME": "판교테크노10사거리", "NODE_TYPE": "101"}}, {"type": "Feature", "geometry": {"type": "Point", "coordinates": [127.10129322917577, 37.3967366728972]}, "properties": {"NODE_ID": "2060099502", "NODE_NAME": "판교IC", "NODE_TYPE": "106"}}, {"type": "Feature", "geometry": {"type": "Point", "coordinates": [127.1097639221241, 37.40248667224651]}, "properties": {"NODE_ID": "2060066916", "NODE_NAME": "삼환하이펙스A동", "NODE_TYPE": "101"}}, {"type": "Feature", "geometry": {"type": "Point", "coordinates": [127.10157771356073, 37.391623279354384]}, "properties": {"NODE_ID": "2060114700", "NODE_NAME": "교량(남측)", "NODE_TYPE": "104"}}, {"type": "Feature", "geometry": {"type": "Point", "coordinates": [127.0982876867975, 37.40069967824232]}, "properties": {"NODE_ID": "2060304200", "NODE_NAME": "판교동 509-10", "NODE_TYPE": "101"}}, {"type": "Feature", "geometry": {"type": "Point", "coordinates": [127.10270617882203, 37.39209583635571]}, "properties": {"NODE_ID": "2060270100", "NODE_NAME": "최소노드배치점", "NODE_TYPE": "107"}}, {"type": "Feature", "geometry": {"type": "Point", "coordinates": [127.11302503841195, 37.392461255199926]}, "properties": {"NODE_ID": "2060272800", "NODE_NAME": "최소노드배치점", "NODE_TYPE": "107"}}, {"type": "Feature", "geometry": {"type": "Point", "coordinates": [127.10853230624852, 37.399879149404036]}, "properties": {"NODE_ID": "2060060311", "NODE_NAME": "삼평동 667-7", "NODE_TYPE": "101"}}, {"type": "Feature", "geometry": {"type": "Point", "coordinates": [127.11308142010554, 37.398364815140525]}, "properties": {"NODE_ID": "2060066401", "NODE_NAME": "봇들교사거리", "NODE_TYPE": "101"}}, {"type": "Feature", "geometry": {"type": "Point", "coordinates": [127.10251112257683, 37.40240102478401]}, "properties": {"NODE_ID": "2060067704", "NODE_NAME": "판교디지털센터C동", "NODE_TYPE": "101"}}, {"type": "Feature", "geometry": {"type": "Point", "coordinates": [127.09570921291655, 37.408687243592134]}, "properties": {"NODE_ID": "2040146206", "NODE_NAME": "금토동410-374", "NODE_TYPE": "101"}}, {"type": "Feature", "geometry": {"type": "Point", "coordinates": [127.10973532533579, 37.399879206939225]}, "properties": {"NODE_ID": "2060066912", "NODE_NAME": "판교테크노3사거리", "NODE_TYPE": "101"}}, {"type": "Feature", "geometry": {"type": "Point", "coordinates": [127.10962553392646, 37.403158036734936]}, "properties": {"NODE_ID": "2060068004", "NODE_NAME": "판교테크노14사거리", "NODE_TYPE": "101"}}, {"type": "Feature", "geometry": {"type": "Point", "coordinates": [127.11925125739218, 37.405398725212144]}, "properties": {"NODE_ID": "2060044902", "NODE_NAME": "벌말사거리", "NODE_TYPE": "101"}}, {"type": "Feature", "geometry": {"type": "Point", "coordinates": [127.09854804009198, 37.400375973213514]}, "properties": {"NODE_ID": "2060280800", "NODE_NAME": "판교동 509-10", "NODE_TYPE": "101"}}, {"type": "Feature", "geometry": {"type": "Point", "coordinates": [127.11228915298155, 37.39625317860682]}, "properties": {"NODE_ID": "2060285500", "NODE_NAME": "삼평동 641-1", "NODE_TYPE": "101"}}, {"type": "Feature", "geometry": {"type": "Point", "coordinates": [127.11120169534574, 37.40090408594862]}, "properties": {"NODE_ID": "2060291900", "NODE_NAME": "삼평동 679-1", "NODE_TYPE": "101"}}, {"type": "Feature", "geometry": {"type": "Point", "coordinates": [127.09815195667225, 37.39068102021536]}, "properties": {"NODE_ID": "2060199000", "NODE_NAME": "판교동 568-16", "NODE_TYPE": "101"}}, {"type": "Feature", "geometry": {"type": "Point", "coordinates": [127.11400606824658, 37.396256771655295]}, "properties": {"NODE_ID": "2060066104", "NODE_NAME": "판교푸르지오월드마크아파트", "NODE_TYPE": "101"}}, {"type": "Feature", "geometry": {"type": "Point", "coordinates": [127.11677350597475, 37.39981492304323]}, "properties": {"NODE_ID": "2060067003", "NODE_NAME": "삼평중삼거리", "NODE_TYPE": "101"}}, {"type": "Feature", "geometry": {"type": "Point", "coordinates": [127.10019939110676, 37.394789056607934]}, "properties": {"NODE_ID": "2060106404", "NODE_NAME": "판교동558-8", "NODE_TYPE": "101"}}, {"type": "Feature", "geometry": {"type": "Point", "coordinates": [127.09966867217577, 37.390665873448086]}, "properties": {"NODE_ID": "2060105403", "NODE_NAME": "판교동568-16", "NODE_TYPE": "101"}}, {"type": "Feature", "geometry": {"type": "Point", "coordinates": [127.10036071818432, 37.39385954664402]}, "properties": {"NODE_ID": "2060106502", "NODE_NAME": "판교동558-8", "NODE_TYPE": "102"}}, {"type": "Feature", "geometry": {"type": "Point", "coordinates": [127.09565886078981, 37.39943594640765]}, "properties": {"NODE_ID": "2060106004", "NODE_NAME": "낙원중학교", "NODE_TYPE": "101"}}, {"type": "Feature", "geometry": {"type": "Point", "coordinates": [127.11308332513656, 37.3998840798147]}, "properties": {"NODE_ID": "2060060501", "NODE_NAME": "삼평사거리", "NODE_TYPE": "101"}}, {"type": "Feature", "geometry": {"type": "Point", "coordinates": [127.10014658416266, 37.40782173135536]}, "properties": {"NODE_ID": "2060310600", "NODE_NAME": "최소노드배치점", "NODE_TYPE": "107"}}, {"type": "Feature", "geometry": {"type": "Point", "coordinates": [127.0951967004449, 37.39922144872954]}, "properties": {"NODE_ID": "2060060104", "NODE_NAME": "성내미사거리", "NODE_TYPE": "101"}}, {"type": "Feature", "geometry": {"type": "Point", "coordinates": [127.09526880238123, 37.399258804369005]}, "properties": {"NODE_ID": "2060060105", "NODE_NAME": "성내미사거리", "NODE_TYPE": "101"}}, {"type": "Feature", "geometry": {"type": "Point", "coordinates": [127.1097476658388, 37.40100446287153]}, "properties": {"NODE_ID": "2060066904", "NODE_NAME": "삼환하이펙스B동", "NODE_TYPE": "101"}}, {"type": "Feature", "geometry": {"type": "Point", "coordinates": [127.10250049448709, 37.399888062702836]}, "properties": {"NODE_ID": "2060067104", "NODE_NAME": "우리은행판교벤처밸리금융센터", "NODE_TYPE": "101"}}, {"type": "Feature", "geometry": {"type": "Point", "coordinates": [127.11993434243162, 37.39919197314984]}, "properties": {"NODE_ID": "2060042603", "NODE_NAME": "매송2교", "NODE_TYPE": "104"}}, {"type": "Feature", "geometry": {"type": "Point", "coordinates": [127.11025957517887, 37.39626010360629]}, "properties": {"NODE_ID": "2060066014", "NODE_NAME": "동안사거리", "NODE_TYPE": "101"}}, {"type": "Feature", "geometry": {"type": "Point", "coordinates": [127.09686635263745, 37.40878829957837]}, "properties": {"NODE_ID": "2049021300", "NODE_NAME": "금토동 270-20", "NODE_TYPE": "101"}}, {"type": "Feature", "geometry": {"type": "Point", "coordinates": [127.11400954315584, 37.39687542551678]}, "properties": {"NODE_ID": "2060303000", "NODE_NAME": "삼평동 739-1", "NODE_TYPE": "101"}}, {"type": "Feature", "geometry": {"type": "Point", "coordinates": [127.10540230862873, 37.40239825879907]}, "properties": {"NODE_ID": "2060310900", "NODE_NAME": "최소노드배치점", "NODE_TYPE": "107"}}, {"type": "Feature", "geometry": {"type": "Point", "coordinates": [127.10314506746839, 37.405079041103605]}, "properties": {"NODE_ID": "2060060805", "NODE_NAME": "삼평동668-1", "NODE_TYPE": "101"}}, {"type": "Feature", "geometry": {"type": "Point", "coordinates": [127.10361491605236, 37.40245366170998]}, "properties": {"NODE_ID": "2060107102", "NODE_NAME": "삼평동 623-2", "NODE_TYPE": "102"}}, {"type": "Feature", "geometry": {"type": "Point", "coordinates": [127.11761854826942, 37.405075077123385]}, "properties": {"NODE_ID": "2060300900", "NODE_NAME": "삼평동 717-6", "NODE_TYPE": "101"}}, {"type": "Feature", "geometry": {"type": "Point", "coordinates": [127.09959035407815, 37.40237049767058]}, "properties": {"NODE_ID": "2060067601", "NODE_NAME": "낙생고가차도", "NODE_TYPE": "101"}}, {"type": "Feature", "geometry": {"type": "Point", "coordinates": [127.1081792612667, 37.39274845958208]}, "properties": {"NODE_ID": "2060065002", "NODE_NAME": "판교IC고가차도(동측)", "NODE_TYPE": "104"}}, {"type": "Feature", "geometry": {"type": "Point", "coordinates": [127.10228738890157, 37.40398471546514]}, "properties": {"NODE_ID": "2060068202", "NODE_NAME": "판교테크노6삼거리", "NODE_TYPE": "101"}}, {"type": "Feature", "geometry": {"type": "Point", "coordinates": [127.09780153609942, 37.401523805649234]}, "properties": {"NODE_ID": "2060067401", "NODE_NAME": "낙생고가차도(서측)", "NODE_TYPE": "101"}}, {"type": "Feature", "geometry": {"type": "Point", "coordinates": [127.1166898276998, 37.40588878473119]}, "properties": {"NODE_ID": "2060107401", "NODE_NAME": "속성변화점", "NODE_TYPE": "103"}}, {"type": "Feature", "geometry": {"type": "Point", "coordinates": [127.09980869930816, 37.39066308757469]}, "properties": {"NODE_ID": "2060105402", "NODE_NAME": "판교동568-16", "NODE_TYPE": "101"}}, {"type": "Feature", "geometry": {"type": "Point", "coordinates": [127.10250380563117, 37.40638747227894]}, "properties": {"NODE_ID": "2060106602", "NODE_NAME": "판교글로벌R&D센터", "NODE_TYPE": "102"}}, {"type": "Feature", "geometry": {"type": "Point", "coordinates": [127.10976874688386, 37.40327309611751]}, "properties": {"NODE_ID": "2060068002", "NODE_NAME": "판교테크노14사거리", "NODE_TYPE": "101"}}, {"type": "Feature", "geometry": {"type": "Point", "coordinates": [127.11550943397725, 37.406765839736494]}, "properties": {"NODE_ID": "2060299800", "NODE_NAME": "삼평동 709-1", "NODE_TYPE": "101"}}, {"type": "Feature", "geometry": {"type": "Point", "coordinates": [127.10974437912903, 37.39280057618991]}, "properties": {"NODE_ID": "2060239800", "NODE_NAME": "백현동 531-1", "NODE_TYPE": "101"}}, {"type": "Feature", "geometry": {"type": "Point", "coordinates": [127.10260139640893, 37.392161907884365]}, "properties": {"NODE_ID": "2060270000", "NODE_NAME": "최소노드배치점", "NODE_TYPE": "107"}}, {"type": "Feature", "geometry": {"type": "Point", "coordinates": [127.11025775322418, 37.397719504886915]}, "properties": {"NODE_ID": "2060066304", "NODE_NAME": "코트야드메리어트판교호텔", "NODE_TYPE": "101"}}, {"type": "Feature", "geometry": {"type": "Point", "coordinates": [127.09557066194238, 37.40867628718548]}, "properties": {"NODE_ID": "2040146209", "NODE_NAME": "금토동410-374", "NODE_TYPE": "101"}}, {"type": "Feature", "geometry": {"type": "Point", "coordinates": [127.11173126084844, 37.401020544072374]}, "properties": {"NODE_ID": "2060107204", "NODE_NAME": "삼평동675-1", "NODE_TYPE": "101"}}, {"type": "Feature", "geometry": {"type": "Point", "coordinates": [127.09577653279868, 37.39948967763159]}, "properties": {"NODE_ID": "2060106001", "NODE_NAME": "낙원중학교", "NODE_TYPE": "101"}}, {"type": "Feature", "geometry": {"type": "Point", "coordinates": [127.11401755741306, 37.39830219207867]}, "properties": {"NODE_ID": "2060066503", "NODE_NAME": "동안삼거리", "NODE_TYPE": "101"}}, {"type": "Feature", "geometry": {"type": "Point", "coordinates": [127.09650544993823, 37.402677170206445]}, "properties": {"NODE_ID": "2060302800", "NODE_NAME": "판교동 508-9", "NODE_TYPE": "101"}}, {"type": "Feature", "geometry": {"type": "Point", "coordinates": [127.10027696050703, 37.40785131123482]}, "properties": {"NODE_ID": "2060310700", "NODE_NAME": "최소노드배치점", "NODE_TYPE": "107"}}, {"type": "Feature", "geometry": {"type": "Point", "coordinates": [127.09951366640182, 37.40232082594798]}, "properties": {"NODE_ID": "2060067602", "NODE_NAME": "낙생고가차도", "NODE_TYPE": "101"}}, {"type": "Feature", "geometry": {"type": "Point", "coordinates": [127.10338777996317, 37.409931253387214]}, "properties": {"NODE_ID": "2040134801", "NODE_NAME": "동판교IC", "NODE_TYPE": "106"}}, {"type": "Feature", "geometry": {"type": "Point", "coordinates": [127.11025761625693, 37.397783935618776]}, "properties": {"NODE_ID": "2060066305", "NODE_NAME": "속성변화점", "NODE_TYPE": "103"}}, {"type": "Feature", "geometry": {"type": "Point", "coordinates": [127.10421169226365, 37.39512094286659]}, "properties": {"NODE_ID": "2060065801", "NODE_NAME": "판교IC고가차도(서측)", "NODE_TYPE": "104"}}, {"type": "Feature", "geometry": {"type": "Point", "coordinates": [127.1008207934333, 37.40090256256166]}, "properties": {"NODE_ID": "2060067201", "NODE_NAME": "판교세븐벤처밸리1단지", "NODE_TYPE": "101"}}, {"type": "Feature", "geometry": {"type": "Point", "coordinates": [127.11165179259588, 37.40609370043772]}, "properties": {"NODE_ID": "2060109101", "NODE_NAME": "광장지하차도(북측)", "NODE_TYPE": "104"}}, {"type": "Feature", "geometry": {"type": "Point", "coordinates": [127.09797935505169, 37.399153618290725]}, "properties": {"NODE_ID": "2060304500", "NODE_NAME": "판교동 510-6", "NODE_TYPE": "101"}}, {"type": "Feature", "geometry": {"type": "Point", "coordinates": [127.10974647990982, 37.40089632843531]}, "properties": {"NODE_ID": "2060066905", "NODE_NAME": "삼환하이펙스B동", "NODE_TYPE": "101"}}, {"type": "Feature", "geometry": {"type": "Point", "coordinates": [127.1097556417596, 37.39772072722038]}, "properties": {"NODE_ID": "2060066307", "NODE_NAME": "코트야드바이메리어트(판교)", "NODE_TYPE": "101"}}, {"type": "Feature", "geometry": {"type": "Point", "coordinates": [127.1130732241101, 37.397138108398444]}, "properties": {"NODE_ID": "2060066004", "NODE_NAME": "판교역사거리", "NODE_TYPE": "101"}}, {"type": "Feature", "geometry": {"type": "Point", "coordinates": [127.09810157878941, 37.394697151977596]}, "properties": {"NODE_ID": "2060099409", "NODE_NAME": "판교동512-4", "NODE_TYPE": "101"}}, {"type": "Feature", "geometry": {"type": "Point", "coordinates": [127.11938947645122, 37.40316980213081]}, "properties": {"NODE_ID": "2060043202", "NODE_NAME": "벌말지하차도(남측)", "NODE_TYPE": "104"}}, {"type": "Feature", "geometry": {"type": "Point", "coordinates": [127.11551107806599, 37.40587874481554]}, "properties": {"NODE_ID": "2060109401", "NODE_NAME": "삼평동행정복지센터", "NODE_TYPE": "101"}}, {"type": "Feature", "geometry": {"type": "Point", "coordinates": [127.10512671384109, 37.403168091300955]}, "properties": {"NODE_ID": "2060060807", "NODE_NAME": "판교테크노중앙사거리", "NODE_TYPE": "101"}}, {"type": "Feature", "geometry": {"type": "Point", "coordinates": [127.10117354629666, 37.39987153216219]}, "properties": {"NODE_ID": "2060066804", "NODE_NAME": "판교세븐벤처밸리2단지", "NODE_TYPE": "101"}}, {"type": "Feature", "geometry": {"type": "Point", "coordinates": [127.11686904814486, 37.39058428064941]}, "properties": {"NODE_ID": "2060152900", "NODE_NAME": "백현동 546-6", "NODE_TYPE": "101"}}, {"type": "Feature", "geometry": {"type": "Point", "coordinates": [127.11288036562318, 37.399386574359376]}, "properties": {"NODE_ID": "2060311900", "NODE_NAME": "최소노드배치점", "NODE_TYPE": "107"}}, {"type": "Feature", "geometry": {"type": "Point", "coordinates": [127.10829271180582, 37.39288172287884]}, "properties": {"NODE_ID": "2060065001", "NODE_NAME": "판교IC고가차도(동측)", "NODE_TYPE": "104"}}, {"type": "Feature", "geometry": {"type": "Point", "coordinates": [127.095844146678, 37.39939597235549]}, "properties": {"NODE_ID": "2060106002", "NODE_NAME": "낙원중학교", "NODE_TYPE": "101"}}, {"type": "Feature", "geometry": {"type": "Point", "coordinates": [127.10150394308786, 37.39208167867377]}, "properties": {"NODE_ID": "2060114500", "NODE_NAME": "교량(북측)", "NODE_TYPE": "104"}}, {"type": "Feature", "geometry": {"type": "Point", "coordinates": [127.11838492578892, 37.394458045678306]}, "properties": {"NODE_ID": "2060209200", "NODE_NAME": "백현동 544-3", "NODE_TYPE": "101"}}, {"type": "Feature", "geometry": {"type": "Point", "coordinates": [127.09896927113522, 37.40372465462674]}, "properties": {"NODE_ID": "2060068103", "NODE_NAME": "우림W-CITY", "NODE_TYPE": "101"}}, {"type": "Feature", "geometry": {"type": "Point", "coordinates": [127.11039305157881, 37.39772916595205]}, "properties": {"NODE_ID": "2060066303", "NODE_NAME": "코트야드메리어트판교호텔", "NODE_TYPE": "101"}}, {"type": "Feature", "geometry": {"type": "Point", "coordinates": [127.1007342242111, 37.40086590889133]}, "properties": {"NODE_ID": "2060067204", "NODE_NAME": "판교세븐벤처밸리1단지", "NODE_TYPE": "101"}}, {"type": "Feature", "geometry": {"type": "Point", "coordinates": [127.10961817129717, 37.40248659965138]}, "properties": {"NODE_ID": "2060066919", "NODE_NAME": "삼환하이펙스A동", "NODE_TYPE": "101"}}, {"type": "Feature", "geometry": {"type": "Point", "coordinates": [127.11039469990061, 37.39618548233465]}, "properties": {"NODE_ID": "2060066012", "NODE_NAME": "속성변화점", "NODE_TYPE": "103"}}, {"type": "Feature", "geometry": {"type": "Point", "coordinates": [127.11409174191354, 37.398364966120006]}, "properties": {"NODE_ID": "2060066501", "NODE_NAME": "동안삼거리", "NODE_TYPE": "101"}}, {"type": "Feature", "geometry": {"type": "Point", "coordinates": [127.09820243625248, 37.402153748260446]}, "properties": {"NODE_ID": "2060004902", "NODE_NAME": "판교JC(남측)", "NODE_TYPE": "106"}}, {"type": "Feature", "geometry": {"type": "Point", "coordinates": [127.1162552372884, 37.40430415415732]}, "properties": {"NODE_ID": "2060109602", "NODE_NAME": "송현초교사거리", "NODE_TYPE": "101"}}, {"type": "Feature", "geometry": {"type": "Point", "coordinates": [127.09939977996025, 37.398536027153646]}, "properties": {"NODE_ID": "2060060200", "NODE_NAME": "판교IC", "NODE_TYPE": "101"}}, {"type": "Feature", "geometry": {"type": "Point", "coordinates": [127.11480404638284, 37.408602159630234]}, "properties": {"NODE_ID": "2049186000", "NODE_NAME": "최소노드배치점", "NODE_TYPE": "107"}}, {"type": "Feature", "geometry": {"type": "Point", "coordinates": [127.11157124972806, 37.40604774301308]}, "properties": {"NODE_ID": "2060109102", "NODE_NAME": "광장지하차도(북측)", "NODE_TYPE": "104"}}, {"type": "Feature", "geometry": {"type": "Point", "coordinates": [127.1168712428684, 37.39327917673314]}, "properties": {"NODE_ID": "2060065502", "NODE_NAME": "보평중고사거리", "NODE_TYPE": "101"}}, {"type": "Feature", "geometry": {"type": "Point", "coordinates": [127.11884339891587, 37.40842474271101]}, "properties": {"NODE_ID": "2060047401", "NODE_NAME": "벌말지하차도삼거리", "NODE_TYPE": "101"}}, {"type": "Feature", "geometry": {"type": "Point", "coordinates": [127.11526245807643, 37.40392866606651]}, "properties": {"NODE_ID": "2060060705", "NODE_NAME": "송현초교사거리", "NODE_TYPE": "101"}}, {"type": "Feature", "geometry": {"type": "Point", "coordinates": [127.11302679563296, 37.4032920532559]}, "properties": {"NODE_ID": "2060060706", "NODE_NAME": "봇들사거리", "NODE_TYPE": "101"}}, {"type": "Feature", "geometry": {"type": "Point", "coordinates": [127.09934898178761, 37.39706657936506]}, "properties": {"NODE_ID": "2060314900", "NODE_NAME": "최소노드배치점", "NODE_TYPE": "107"}}, {"type": "Feature", "geometry": {"type": "Point", "coordinates": [127.10056836729761, 37.3929174043919]}, "properties": {"NODE_ID": "2060140400", "NODE_NAME": "판교동 559-7", "NODE_TYPE": "101"}}, {"type": "Feature", "geometry": {"type": "Point", "coordinates": [127.09877261382253, 37.3994266450159]}, "properties": {"NODE_ID": "2060106303", "NODE_NAME": "판교동509-10", "NODE_TYPE": "101"}}, {"type": "Feature", "geometry": {"type": "Point", "coordinates": [127.10344038039896, 37.40519791515434]}, "properties": {"NODE_ID": "2060060803", "NODE_NAME": "삼평동668-1", "NODE_TYPE": "101"}}, {"type": "Feature", "geometry": {"type": "Point", "coordinates": [127.11677817688201, 37.39836917903177]}, "properties": {"NODE_ID": "2060066604", "NODE_NAME": "구숯내삼거리", "NODE_TYPE": "101"}}, {"type": "Feature", "geometry": {"type": "Point", "coordinates": [127.09555242590775, 37.40856658926153]}, "properties": {"NODE_ID": "2040146208", "NODE_NAME": "금토동410-374", "NODE_TYPE": "101"}}, {"type": "Feature", "geometry": {"type": "Point", "coordinates": [127.11186668869823, 37.401024715662324]}, "properties": {"NODE_ID": "2060107201", "NODE_NAME": "삼평동675-1", "NODE_TYPE": "101"}}, {"type": "Feature", "geometry": {"type": "Point", "coordinates": [127.11235694582224, 37.39714528788528]}, "properties": {"NODE_ID": "2060107502", "NODE_NAME": "판교역푸르지오시티", "NODE_TYPE": "101"}}, {"type": "Feature", "geometry": {"type": "Point", "coordinates": [127.09833427612261, 37.39279122481866]}, "properties": {"NODE_ID": "2060099403", "NODE_NAME": "낙생초등학교앞", "NODE_TYPE": "101"}}, {"type": "Feature", "geometry": {"type": "Point", "coordinates": [127.09590931258221, 37.40008271501952]}, "properties": {"NODE_ID": "2060105904", "NODE_NAME": "판교동511-7", "NODE_TYPE": "101"}}, {"type": "Feature", "geometry": {"type": "Point", "coordinates": [127.11282077436533, 37.39724727607647]}, "properties": {"NODE_ID": "2060066006", "NODE_NAME": "판교역사거리", "NODE_TYPE": "101"}}, {"type": "Feature", "geometry": {"type": "Point", "coordinates": [127.11222142850802, 37.396704379252995]}, "properties": {"NODE_ID": "2060107902", "NODE_NAME": "속성변화점", "NODE_TYPE": "103"}}, {"type": "Feature", "geometry": {"type": "Point", "coordinates": [127.11278904871678, 37.40317951102161]}, "properties": {"NODE_ID": "2060060708", "NODE_NAME": "봇들사거리", "NODE_TYPE": "101"}}, {"type": "Feature", "geometry": {"type": "Point", "coordinates": [127.10161165733236, 37.39788248537966]}, "properties": {"NODE_ID": "2060293100", "NODE_NAME": "삼평동 634-3", "NODE_TYPE": "101"}}, {"type": "Feature", "geometry": {"type": "Point", "coordinates": [127.11876272604717, 37.40853264332699]}, "properties": {"NODE_ID": "2060047701", "NODE_NAME": "벌말지하차도(북측)", "NODE_TYPE": "104"}}, {"type": "Feature", "geometry": {"type": "Point", "coordinates": [127.11677043620972, 37.391965261669775]}, "properties": {"NODE_ID": "2060059304", "NODE_NAME": "동판교로사거리", "NODE_TYPE": "101"}}, {"type": "Feature", "geometry": {"type": "Point", "coordinates": [127.1065664783417, 37.40404516325468]}, "properties": {"NODE_ID": "2060106801", "NODE_NAME": "판교테크노밸리스타트업캠퍼스", "NODE_TYPE": "101"}}, {"type": "Feature", "geometry": {"type": "Point", "coordinates": [127.09765892895066, 37.39071449143187]}, "properties": {"NODE_ID": "2060058105", "NODE_NAME": "로저아트갤러리", "NODE_TYPE": "101"}}, {"type": "Feature", "geometry": {"type": "Point", "coordinates": [127.11040570782919, 37.397246395145935]}, "properties": {"NODE_ID": "2060107701", "NODE_NAME": "코트야드메리어트판교호텔", "NODE_TYPE": "101"}}, {"type": "Feature", "geometry": {"type": "Point", "coordinates": [127.10012295986029, 37.40170127081911]}, "properties": {"NODE_ID": "2060067504", "NODE_NAME": "판교디지털센터", "NODE_TYPE": "101"}}, {"type": "Feature", "geometry": {"type": "Point", "coordinates": [127.10673391932934, 37.40770159576708]}, "properties": {"NODE_ID": "2040153202", "NODE_NAME": "성남시수정구-성남시분당구", "NODE_TYPE": "105"}}, {"type": "Feature", "geometry": {"type": "Point", "coordinates": [127.11533369098876, 37.408482678007026]}, "properties": {"NODE_ID": "2060109201", "NODE_NAME": "성남시수정구-성남시분당구", "NODE_TYPE": "105"}}, {"type": "Feature", "geometry": {"type": "Point", "coordinates": [127.11522022795496, 37.40846561590001]}, "properties": {"NODE_ID": "2060109202", "NODE_NAME": "성남시수정구-성남시분당구", "NODE_TYPE": "105"}}, {"type": "Feature", "geometry": {"type": "Point", "coordinates": [127.0963493126187, 37.39831894684524]}, "properties": {"NODE_ID": "2060060109", "NODE_NAME": "낙원중삼거리", "NODE_TYPE": "101"}}, {"type": "Feature", "geometry": {"type": "Point", "coordinates": [127.09763940072364, 37.39898175238705]}, "properties": {"NODE_ID": "2060289800", "NODE_NAME": "판교동 518-2", "NODE_TYPE": "101"}}, {"type": "Feature", "geometry": {"type": "Point", "coordinates": [127.09871141090863, 37.399002516483726]}, "properties": {"NODE_ID": "2060304000", "NODE_NAME": "판교동 528-3", "NODE_TYPE": "101"}}, {"type": "Feature", "geometry": {"type": "Point", "coordinates": [127.1095854063255, 37.39618831253517]}, "properties": {"NODE_ID": "2060066203", "NODE_NAME": "동안사거리", "NODE_TYPE": "101"}}, {"type": "Feature", "geometry": {"type": "Point", "coordinates": [127.11308074027987, 37.398302126636395]}, "properties": {"NODE_ID": "2060066402", "NODE_NAME": "봇들교사거리", "NODE_TYPE": "101"}}, {"type": "Feature", "geometry": {"type": "Point", "coordinates": [127.11171950386986, 37.397146190427826]}, "properties": {"NODE_ID": "2060107602", "NODE_NAME": "코트야드메리어트판교호텔", "NODE_TYPE": "101"}}, {"type": "Feature", "geometry": {"type": "Point", "coordinates": [127.10224405944217, 37.40403513945576]}, "properties": {"NODE_ID": "2060068201", "NODE_NAME": "판교테크노6삼거리", "NODE_TYPE": "101"}}, {"type": "Feature", "geometry": {"type": "Point", "coordinates": [127.10102831404696, 37.390763327131125]}, "properties": {"NODE_ID": "2060105501", "NODE_NAME": "판교동560-11", "NODE_TYPE": "102"}}, {"type": "Feature", "geometry": {"type": "Point", "coordinates": [127.10076833270926, 37.40080893307281]}, "properties": {"NODE_ID": "2060067203", "NODE_NAME": "판교세븐벤처밸리1단지", "NODE_TYPE": "101"}}, {"type": "Feature", "geometry": {"type": "Point", "coordinates": [127.09609717709402, 37.40004929131379]}, "properties": {"NODE_ID": "2060105902", "NODE_NAME": "판교동511-7", "NODE_TYPE": "101"}}, {"type": "Feature", "geometry": {"type": "Point", "coordinates": [127.09980997494802, 37.39277449777731]}, "properties": {"NODE_ID": "2060099411", "NODE_NAME": "판교동559-7", "NODE_TYPE": "101"}}, {"type": "Feature", "geometry": {"type": "Point", "coordinates": [127.11540522818684, 37.40577049376192]}, "properties": {"NODE_ID": "2060109403", "NODE_NAME": "삼평동행정복지센터", "NODE_TYPE": "101"}}, {"type": "Feature", "geometry": {"type": "Point", "coordinates": [127.11307070497469, 37.391801776533676]}, "properties": {"NODE_ID": "2060059201", "NODE_NAME": "느티나무사거리", "NODE_TYPE": "101"}}, {"type": "Feature", "geometry": {"type": "Point", "coordinates": [127.11551035257995, 37.406270189412375]}, "properties": {"NODE_ID": "2060109302", "NODE_NAME": "삼평동행정복지센터", "NODE_TYPE": "101"}}, {"type": "Feature", "geometry": {"type": "Point", "coordinates": [127.09660509224682, 37.40091732391105]}, "properties": {"NODE_ID": "2060296200", "NODE_NAME": "판교동 494-2", "NODE_TYPE": "101"}}, {"type": "Feature", "geometry": {"type": "Point", "coordinates": [127.09872313113407, 37.399999556975615]}, "properties": {"NODE_ID": "2060309500", "NODE_NAME": "판교동 509-10", "NODE_TYPE": "101"}}, {"type": "Feature", "geometry": {"type": "Point", "coordinates": [127.11687802997696, 37.398306459919155]}, "properties": {"NODE_ID": "2060066602", "NODE_NAME": "구숯내삼거리", "NODE_TYPE": "101"}}, {"type": "Feature", "geometry": {"type": "Point", "coordinates": [127.11677116074763, 37.39327921190922]}, "properties": {"NODE_ID": "2060065503", "NODE_NAME": "보평중고사거리", "NODE_TYPE": "101"}}, {"type": "Feature", "geometry": {"type": "Point", "coordinates": [127.09967446145899, 37.39277603449994]}, "properties": {"NODE_ID": "2060099414", "NODE_NAME": "판교동559-7", "NODE_TYPE": "101"}}, {"type": "Feature", "geometry": {"type": "Point", "coordinates": [127.10651987999687, 37.403164995840804]}, "properties": {"NODE_ID": "2060068007", "NODE_NAME": "삼평동688-3", "NODE_TYPE": "101"}}, {"type": "Feature", "geometry": {"type": "Point", "coordinates": [127.11605995312026, 37.40433265077413]}, "properties": {"NODE_ID": "2060109604", "NODE_NAME": "송현초교사거리", "NODE_TYPE": "101"}}, {"type": "Feature", "geometry": {"type": "Point", "coordinates": [127.09890681278745, 37.3995576080433]}, "properties": {"NODE_ID": "2060106301", "NODE_NAME": "판교동509-10", "NODE_TYPE": "101"}}, {"type": "Feature", "geometry": {"type": "Point", "coordinates": [127.10257610617128, 37.39982098292399]}, "properties": {"NODE_ID": "2060067102", "NODE_NAME": "우리은행판교벤처밸리금융센터", "NODE_TYPE": "101"}}, {"type": "Feature", "geometry": {"type": "Point", "coordinates": [127.11851890358304, 37.395592145888656]}, "properties": {"NODE_ID": "2060108001", "NODE_NAME": "속성변화점", "NODE_TYPE": "103"}}, {"type": "Feature", "geometry": {"type": "Point", "coordinates": [127.11687395972338, 37.39981599917421]}, "properties": {"NODE_ID": "2060067002", "NODE_NAME": "삼평중삼거리", "NODE_TYPE": "101"}}, {"type": "Feature", "geometry": {"type": "Point", "coordinates": [127.10960234212844, 37.39772186058266]}, "properties": {"NODE_ID": "2060066308", "NODE_NAME": "코트야드바이메리어트(판교)", "NODE_TYPE": "101"}}, {"type": "Feature", "geometry": {"type": "Point", "coordinates": [127.10258702380303, 37.402432143138]}, "properties": {"NODE_ID": "2060067701", "NODE_NAME": "판교디지털센터C동", "NODE_TYPE": "101"}}, {"type": "Feature", "geometry": {"type": "Point", "coordinates": [127.11183037518684, 37.402478709810296]}, "properties": {"NODE_ID": "2060107301", "NODE_NAME": "속성변화점", "NODE_TYPE": "103"}}, {"type": "Feature", "geometry": {"type": "Point", "coordinates": [127.1065236666276, 37.40327899268186]}, "properties": {"NODE_ID": "2060068006", "NODE_NAME": "삼평동688-3", "NODE_TYPE": "101"}}, {"type": "Feature", "geometry": {"type": "Point", "coordinates": [127.10002584967366, 37.395558634102095]}, "properties": {"NODE_ID": "2060145900", "NODE_NAME": "판교동 509-11", "NODE_TYPE": "101"}}, {"type": "Feature", "geometry": {"type": "Point", "coordinates": [127.09622333052513, 37.40872789789839]}, "properties": {"NODE_ID": "2049124100", "NODE_NAME": "금토동 410-230", "NODE_TYPE": "101"}}, {"type": "Feature", "geometry": {"type": "Point", "coordinates": [127.09528338593212, 37.39913002409683]}, "properties": {"NODE_ID": "2060060103", "NODE_NAME": "성내미사거리", "NODE_TYPE": "101"}}, {"type": "Feature", "geometry": {"type": "Point", "coordinates": [127.10959111804651, 37.39981245206773]}, "properties": {"NODE_ID": "2060066914", "NODE_NAME": "판교테크노3사거리", "NODE_TYPE": "101"}}, {"type": "Feature", "geometry": {"type": "Point", "coordinates": [127.11551127844218, 37.40577061886023]}, "properties": {"NODE_ID": "2060109402", "NODE_NAME": "삼평동행정복지센터", "NODE_TYPE": "101"}}, {"type": "Feature", "geometry": {"type": "Point", "coordinates": [127.10660486500568, 37.39987822131116]}, "properties": {"NODE_ID": "2060060307", "NODE_NAME": "판교테크노2사거리", "NODE_TYPE": "101"}}, {"type": "Feature", "geometry": {"type": "Point", "coordinates": [127.10631848134172, 37.399880581409874]}, "properties": {"NODE_ID": "2060060310", "NODE_NAME": "판교테크노2사거리", "NODE_TYPE": "101"}}, {"type": "Feature", "geometry": {"type": "Point", "coordinates": [127.09601805641829, 37.40045792432908]}, "properties": {"NODE_ID": "2060060414", "NODE_NAME": "판교박물관", "NODE_TYPE": "101"}}, {"type": "Feature", "geometry": {"type": "Point", "coordinates": [127.102501810986, 37.399820774124734]}, "properties": {"NODE_ID": "2060067103", "NODE_NAME": "우리은행판교벤처밸리금융센터", "NODE_TYPE": "101"}}, {"type": "Feature", "geometry": {"type": "Point", "coordinates": [127.10150506287766, 37.39500591582965]}, "properties": {"NODE_ID": "2060099600", "NODE_NAME": "판교IC", "NODE_TYPE": "106"}}, {"type": "Feature", "geometry": {"type": "Point", "coordinates": [127.09823147607007, 37.39480969658123]}, "properties": {"NODE_ID": "2060099407", "NODE_NAME": "판교동512-4", "NODE_TYPE": "101"}}, {"type": "Feature", "geometry": {"type": "Point", "coordinates": [127.0981232741281, 37.40933361711795]}, "properties": {"NODE_ID": "2049050700", "NODE_NAME": "금토동 277-26", "NODE_TYPE": "101"}}, {"type": "Feature", "geometry": {"type": "Point", "coordinates": [127.10028426876207, 37.39428485381602]}, "properties": {"NODE_ID": "2060154600", "NODE_NAME": "판교동 558-8", "NODE_TYPE": "101"}}, {"type": "Feature", "geometry": {"type": "Point", "coordinates": [127.11496376196263, 37.39618057005817]}, "properties": {"NODE_ID": "2060297100", "NODE_NAME": "삼평동 740-1", "NODE_TYPE": "101"}}, {"type": "Feature", "geometry": {"type": "Point", "coordinates": [127.09885029370608, 37.397843353706726]}, "properties": {"NODE_ID": "2060297300", "NODE_NAME": "판교동 509-11", "NODE_TYPE": "101"}}, {"type": "Feature", "geometry": {"type": "Point", "coordinates": [127.09535127559714, 37.399171846141165]}, "properties": {"NODE_ID": "2060060102", "NODE_NAME": "성내미사거리", "NODE_TYPE": "101"}}, {"type": "Feature", "geometry": {"type": "Point", "coordinates": [127.10214899872524, 37.404005218535175]}, "properties": {"NODE_ID": "2060068204", "NODE_NAME": "판교테크노6삼거리", "NODE_TYPE": "101"}}, {"type": "Feature", "geometry": {"type": "Point", "coordinates": [127.10643076461156, 37.403937039280414]}, "properties": {"NODE_ID": "2060106803", "NODE_NAME": "판교테크노밸리스타트업캠퍼스", "NODE_TYPE": "101"}}, {"type": "Feature", "geometry": {"type": "Point", "coordinates": [127.11174653261224, 37.39988241673296]}, "properties": {"NODE_ID": "2060066911", "NODE_NAME": "삼평동667-7", "NODE_TYPE": "101"}}, {"type": "Feature", "geometry": {"type": "Point", "coordinates": [127.10684210813027, 37.3962911044676]}, "properties": {"NODE_ID": "2060059804", "NODE_NAME": "화랑공원삼거리", "NODE_TYPE": "101"}}, {"type": "Feature", "geometry": {"type": "Point", "coordinates": [127.1095920548008, 37.39332614888508]}, "properties": {"NODE_ID": "2060137200", "NODE_NAME": "백현동 531-1", "NODE_TYPE": "101"}}, {"type": "Feature", "geometry": {"type": "Point", "coordinates": [127.1068796308113, 37.39864996291993]}, "properties": {"NODE_ID": "2060311000", "NODE_NAME": "최소노드배치점", "NODE_TYPE": "107"}}, {"type": "Feature", "geometry": {"type": "Point", "coordinates": [127.10333776457199, 37.40526903245653]}, "properties": {"NODE_ID": "2060060802", "NODE_NAME": "삼평동668-1", "NODE_TYPE": "101"}}, {"type": "Feature", "geometry": {"type": "Point", "coordinates": [127.10361491739148, 37.40234553923047]}, "properties": {"NODE_ID": "2060107101", "NODE_NAME": "삼평동 623-2", "NODE_TYPE": "102"}}, {"type": "Feature", "geometry": {"type": "Point", "coordinates": [127.10388855895809, 37.40554068649353]}, "properties": {"NODE_ID": "2060106702", "NODE_NAME": "삼평동698-1", "NODE_TYPE": "101"}}, {"type": "Feature", "geometry": {"type": "Point", "coordinates": [127.11169798732016, 37.40237058699941]}, "properties": {"NODE_ID": "2060107302", "NODE_NAME": "속성변화점", "NODE_TYPE": "103"}}, {"type": "Feature", "geometry": {"type": "Point", "coordinates": [127.11283059414919, 37.399817779800706]}, "properties": {"NODE_ID": "2060060503", "NODE_NAME": "삼평사거리", "NODE_TYPE": "101"}}, {"type": "Feature", "geometry": {"type": "Point", "coordinates": [127.10975015991374, 37.39379202775117]}, "properties": {"NODE_ID": "2060065601", "NODE_NAME": "환승주차장삼거리", "NODE_TYPE": "101"}}, {"type": "Feature", "geometry": {"type": "Point", "coordinates": [127.10962245702488, 37.40404518237402]}, "properties": {"NODE_ID": "2060106904", "NODE_NAME": "판교테크노14사거리", "NODE_TYPE": "101"}}, {"type": "Feature", "geometry": {"type": "Point", "coordinates": [127.10582658233217, 37.39428680571352]}, "properties": {"NODE_ID": "2060059602", "NODE_NAME": "판교IC앞사거리", "NODE_TYPE": "101"}}, {"type": "Feature", "geometry": {"type": "Point", "coordinates": [127.11885972997734, 37.40831738146273]}, "properties": {"NODE_ID": "2060047402", "NODE_NAME": "벌말지하차도삼거리", "NODE_TYPE": "101"}}, {"type": "Feature", "geometry": {"type": "Point", "coordinates": [127.11551015219236, 37.406378311798996]}, "properties": {"NODE_ID": "2060109301", "NODE_NAME": "삼평동행정복지센터", "NODE_TYPE": "101"}}, {"type": "Feature", "geometry": {"type": "Point", "coordinates": [127.0966969203292, 37.400801948507166]}, "properties": {"NODE_ID": "2060296300", "NODE_NAME": "판교동 494-2", "NODE_TYPE": "101"}}, {"type": "Feature", "geometry": {"type": "Point", "coordinates": [127.0957994854857, 37.40305983305879]}, "properties": {"NODE_ID": "2060297700", "NODE_NAME": "판교동 508-9", "NODE_TYPE": "101"}}, {"type": "Feature", "geometry": {"type": "Point", "coordinates": [127.10323889485302, 37.40501522484074]}, "properties": {"NODE_ID": "2060060804", "NODE_NAME": "삼평동668-1", "NODE_TYPE": "101"}}, {"type": "Feature", "geometry": {"type": "Point", "coordinates": [127.09781881085385, 37.39080052184204]}, "properties": {"NODE_ID": "2060058103", "NODE_NAME": "로저아트갤러리", "NODE_TYPE": "101"}}, {"type": "Feature", "geometry": {"type": "Point", "coordinates": [127.1117195028137, 37.39725431218965]}, "properties": {"NODE_ID": "2060107601", "NODE_NAME": "코트야드메리어트판교호텔", "NODE_TYPE": "101"}}, {"type": "Feature", "geometry": {"type": "Point", "coordinates": [127.10975791819172, 37.403942177127796]}, "properties": {"NODE_ID": "2060106902", "NODE_NAME": "판교테크노14사거리", "NODE_TYPE": "101"}}, {"type": "Feature", "geometry": {"type": "Point", "coordinates": [127.10252614762875, 37.406494114759276]}, "properties": {"NODE_ID": "2060106601", "NODE_NAME": "판교글로벌R&D센터", "NODE_TYPE": "102"}}, {"type": "Feature", "geometry": {"type": "Point", "coordinates": [127.1039783036206, 37.39328403870432]}, "properties": {"NODE_ID": "2060059503", "NODE_NAME": "화랑지하차도", "NODE_TYPE": "106"}}, {"type": "Feature", "geometry": {"type": "Point", "coordinates": [127.11188222465883, 37.39981627868963]}, "properties": {"NODE_ID": "2060066909", "NODE_NAME": "속성변화점", "NODE_TYPE": "103"}}, {"type": "Feature", "geometry": {"type": "Point", "coordinates": [127.10959683814036, 37.39379156232936]}, "properties": {"NODE_ID": "2060065604", "NODE_NAME": "환승주차장삼거리", "NODE_TYPE": "101"}}, {"type": "Feature", "geometry": {"type": "Point", "coordinates": [127.098062872335, 37.406990779844534]}, "properties": {"NODE_ID": "2040000202", "NODE_NAME": "판교JC", "NODE_TYPE": "106"}}, {"type": "Feature", "geometry": {"type": "Point", "coordinates": [127.10507604781404, 37.40328199867343]}, "properties": {"NODE_ID": "2060060806", "NODE_NAME": "판교테크노중앙사거리", "NODE_TYPE": "101"}}, {"type": "Feature", "geometry": {"type": "Point", "coordinates": [127.10251224957328, 37.40089250040949]}, "properties": {"NODE_ID": "2060067303", "NODE_NAME": "판교테크노10사거리", "NODE_TYPE": "101"}}, {"type": "Feature", "geometry": {"type": "Point", "coordinates": [127.10045100909919, 37.39802815563915]}, "properties": {"NODE_ID": "2060311300", "NODE_NAME": "최소노드배치점", "NODE_TYPE": "107"}}, {"type": "Feature", "geometry": {"type": "Point", "coordinates": [127.09610484267178, 37.4066184214798]}, "properties": {"NODE_ID": "2060311700", "NODE_NAME": "최소노드배치점", "NODE_TYPE": "107"}}, {"type": "Feature", "geometry": {"type": "Point", "coordinates": [127.09789319944798, 37.40140869701681]}, "properties": {"NODE_ID": "2060067402", "NODE_NAME": "낙생고가차도(서측)", "NODE_TYPE": "101"}}, {"type": "Feature", "geometry": {"type": "Point", "coordinates": [127.10960299043715, 37.397783714329414]}, "properties": {"NODE_ID": "2060066309", "NODE_NAME": "코트야드바이메리어트(판교)", "NODE_TYPE": "101"}}, {"type": "Feature", "geometry": {"type": "Point", "coordinates": [127.11898066119136, 37.40547116282646]}, "properties": {"NODE_ID": "2060044904", "NODE_NAME": "벌말사거리", "NODE_TYPE": "101"}}, {"type": "Feature", "geometry": {"type": "Point", "coordinates": [127.10251298158259, 37.40095477581575]}, "properties": {"NODE_ID": "2060067304", "NODE_NAME": "판교테크노10사거리", "NODE_TYPE": "101"}}, {"type": "Feature", "geometry": {"type": "Point", "coordinates": [127.11281434814427, 37.39625138093574]}, "properties": {"NODE_ID": "2060066010", "NODE_NAME": "판교역사거리", "NODE_TYPE": "101"}}, {"type": "Feature", "geometry": {"type": "Point", "coordinates": [127.10638796936729, 37.40327927521263]}, "properties": {"NODE_ID": "2060068009", "NODE_NAME": "삼평동688-3", "NODE_TYPE": "101"}}, {"type": "Feature", "geometry": {"type": "Point", "coordinates": [127.09840965710806, 37.40228328532088]}, "properties": {"NODE_ID": "2060004901", "NODE_NAME": "판교JC(남측)", "NODE_TYPE": "106"}}, {"type": "Feature", "geometry": {"type": "Point", "coordinates": [127.09967262011874, 37.39191659232309]}, "properties": {"NODE_ID": "2060198700", "NODE_NAME": "판교동 560-9", "NODE_TYPE": "101"}}, {"type": "Feature", "geometry": {"type": "Point", "coordinates": [127.10328297029032, 37.40999978738946]}, "properties": {"NODE_ID": "2040134802", "NODE_NAME": "동판교IC", "NODE_TYPE": "106"}}, {"type": "Feature", "geometry": {"type": "Point", "coordinates": [127.11485556352258, 37.408528062632485]}, "properties": {"NODE_ID": "2049186100", "NODE_NAME": "최소노드배치점", "NODE_TYPE": "107"}}, {"type": "Feature", "geometry": {"type": "Point", "coordinates": [127.09628800492007, 37.399599817570746]}, "properties": {"NODE_ID": "2060106103", "NODE_NAME": "낙원중학교", "NODE_TYPE": "101"}}, {"type": "Feature", "geometry": {"type": "Point", "coordinates": [127.11687039466393, 37.391818765359126]}, "properties": {"NODE_ID": "2060059302", "NODE_NAME": "동판교로사거리", "NODE_TYPE": "101"}}, {"type": "Feature", "geometry": {"type": "Point", "coordinates": [127.10853235621195, 37.399811955729604]}, "properties": {"NODE_ID": "2060060312", "NODE_NAME": "속성변화점", "NODE_TYPE": "103"}}, {"type": "Feature", "geometry": {"type": "Point", "coordinates": [127.11677329311445, 37.39988049413949]}, "properties": {"NODE_ID": "2060067004", "NODE_NAME": "삼평중삼거리", "NODE_TYPE": "101"}}, {"type": "Feature", "geometry": {"type": "Point", "coordinates": [127.1167712204292, 37.39338736355442]}, "properties": {"NODE_ID": "2060065504", "NODE_NAME": "보평중고사거리", "NODE_TYPE": "101"}}, {"type": "Feature", "geometry": {"type": "Point", "coordinates": [127.10961698549507, 37.402378461567785]}, "properties": {"NODE_ID": "2060066918", "NODE_NAME": "삼환하이펙스A동", "NODE_TYPE": "101"}}, {"type": "Feature", "geometry": {"type": "Point", "coordinates": [127.10160215436113, 37.39758240393279]}, "properties": {"NODE_ID": "2060289700", "NODE_NAME": "삼평동 634-3", "NODE_TYPE": "101"}}, {"type": "Feature", "geometry": {"type": "Point", "coordinates": [127.0984401387329, 37.390678200598806]}, "properties": {"NODE_ID": "2060202900", "NODE_NAME": "판교동 568-16", "NODE_TYPE": "101"}}, {"type": "Feature", "geometry": {"type": "Point", "coordinates": [127.09819887406012, 37.39278683488199]}, "properties": {"NODE_ID": "2060099406", "NODE_NAME": "낙생초등학교앞", "NODE_TYPE": "101"}}, {"type": "Feature", "geometry": {"type": "Point", "coordinates": [127.11159818514881, 37.4042863436729]}, "properties": {"NODE_ID": "2060107001", "NODE_NAME": "삼평동698-1", "NODE_TYPE": "101"}}, {"type": "Feature", "geometry": {"type": "Point", "coordinates": [127.11306374506532, 37.39371667768954]}, "properties": {"NODE_ID": "2060065702", "NODE_NAME": "마이알레현대백화점판교점", "NODE_TYPE": "101"}}, {"type": "Feature", "geometry": {"type": "Point", "coordinates": [127.09863960905736, 37.392679699473085]}, "properties": {"NODE_ID": "2060134700", "NODE_NAME": "판교동 559-8", "NODE_TYPE": "101"}}, {"type": "Feature", "geometry": {"type": "Point", "coordinates": [127.10219373047265, 37.403955235964226]}, "properties": {"NODE_ID": "2060068203", "NODE_NAME": "판교테크노6삼거리", "NODE_TYPE": "101"}}, {"type": "Feature", "geometry": {"type": "Point", "coordinates": [127.10188341527378, 37.39113954462188]}, "properties": {"NODE_ID": "2060002904", "NODE_NAME": "판교IC(남측)", "NODE_TYPE": "106"}}, {"type": "Feature", "geometry": {"type": "Point", "coordinates": [127.10020029109504, 37.40174967215783]}, "properties": {"NODE_ID": "2060067501", "NODE_NAME": "판교디지털센터", "NODE_TYPE": "101"}}, {"type": "Feature", "geometry": {"type": "Point", "coordinates": [127.11675113954766, 37.39058523152938]}, "properties": {"NODE_ID": "2060152800", "NODE_NAME": "백현동 546-6", "NODE_TYPE": "101"}}, {"type": "Feature", "geometry": {"type": "Point", "coordinates": [127.0987713619825, 37.39955401517707]}, "properties": {"NODE_ID": "2060106304", "NODE_NAME": "판교동509-10", "NODE_TYPE": "101"}}, {"type": "Feature", "geometry": {"type": "Point", "coordinates": [127.1025175752188, 37.40322176122772]}, "properties": {"NODE_ID": "2060067904", "NODE_NAME": "낙생고가차도(동측)", "NODE_TYPE": "104"}}, {"type": "Feature", "geometry": {"type": "Point", "coordinates": [127.11027091826304, 37.39713938666988]}, "properties": {"NODE_ID": "2060107703", "NODE_NAME": "코트야드메리어트판교호텔", "NODE_TYPE": "101"}}, {"type": "Feature", "geometry": {"type": "Point", "coordinates": [127.10258680101745, 37.40232385424683]}, "properties": {"NODE_ID": "2060067702", "NODE_NAME": "판교디지털센터C동", "NODE_TYPE": "101"}}, {"type": "Feature", "geometry": {"type": "Point", "coordinates": [127.11187031148607, 37.40091381359778]}, "properties": {"NODE_ID": "2060107202", "NODE_NAME": "삼평동675-1", "NODE_TYPE": "101"}}, {"type": "Feature", "geometry": {"type": "Point", "coordinates": [127.11308378540801, 37.39981850934612]}, "properties": {"NODE_ID": "2060060502", "NODE_NAME": "삼평사거리", "NODE_TYPE": "101"}}, {"type": "Feature", "geometry": {"type": "Point", "coordinates": [127.10132254246112, 37.39339583536628]}, "properties": {"NODE_ID": "2060004102", "NODE_NAME": "판교IC", "NODE_TYPE": "106"}}, {"type": "Feature", "geometry": {"type": "Point", "coordinates": [127.0970236778508, 37.39779364993124]}, "properties": {"NODE_ID": "2060283700", "NODE_NAME": "판교동 512-4", "NODE_TYPE": "101"}}, {"type": "Feature", "geometry": {"type": "Point", "coordinates": [127.10663557111026, 37.399811042011386]}, "properties": {"NODE_ID": "2060060308", "NODE_NAME": "판교테크노2사거리", "NODE_TYPE": "101"}}, {"type": "Feature", "geometry": {"type": "Point", "coordinates": [127.09833026881562, 37.392683147859096]}, "properties": {"NODE_ID": "2060099404", "NODE_NAME": "낙생초등학교앞", "NODE_TYPE": "101"}}, {"type": "Feature", "geometry": {"type": "Point", "coordinates": [127.09980805413727, 37.39266666691081]}, "properties": {"NODE_ID": "2060099412", "NODE_NAME": "판교동559-7", "NODE_TYPE": "101"}}, {"type": "Feature", "geometry": {"type": "Point", "coordinates": [127.10539855238645, 37.39419568831243]}, "properties": {"NODE_ID": "2060059604", "NODE_NAME": "판교IC앞사거리", "NODE_TYPE": "101"}}, {"type": "Feature", "geometry": {"type": "Point", "coordinates": [127.11923473035208, 37.405507136561596]}, "properties": {"NODE_ID": "2060044901", "NODE_NAME": "벌말사거리", "NODE_TYPE": "101"}}, {"type": "Feature", "geometry": {"type": "Point", "coordinates": [127.10145768655788, 37.39341492165472]}, "properties": {"NODE_ID": "2060004101", "NODE_NAME": "판교IC", "NODE_TYPE": "106"}}, {"type": "Feature", "geometry": {"type": "Point", "coordinates": [127.09636296835572, 37.398193642585845]}, "properties": {"NODE_ID": "2060060107", "NODE_NAME": "낙원중삼거리", "NODE_TYPE": "101"}}, {"type": "Feature", "geometry": {"type": "Point", "coordinates": [127.11537689203276, 37.403986635106]}, "properties": {"NODE_ID": "2060060702", "NODE_NAME": "송현초교사거리", "NODE_TYPE": "101"}}, {"type": "Feature", "geometry": {"type": "Point", "coordinates": [127.09897915478861, 37.3974600117491]}, "properties": {"NODE_ID": "2060302100", "NODE_NAME": "판교동 537-12", "NODE_TYPE": "101"}}, {"type": "Feature", "geometry": {"type": "Point", "coordinates": [127.09536266090718, 37.40676492150424]}, "properties": {"NODE_ID": "2060312500", "NODE_NAME": "최소노드배치점", "NODE_TYPE": "107"}}, {"type": "Feature", "geometry": {"type": "Point", "coordinates": [127.09619739527537, 37.40022575706397]}, "properties": {"NODE_ID": "2060105804", "NODE_NAME": "판교동511-8", "NODE_TYPE": "101"}}, {"type": "Feature", "geometry": {"type": "Point", "coordinates": [127.10257661882115, 37.39988839827202]}, "properties": {"NODE_ID": "2060067101", "NODE_NAME": "우리은행판교벤처밸리금융센터", "NODE_TYPE": "101"}}, {"type": "Feature", "geometry": {"type": "Point", "coordinates": [127.10378587784312, 37.40547011165572]}, "properties": {"NODE_ID": "2060106703", "NODE_NAME": "삼평동698-1", "NODE_TYPE": "101"}}, {"type": "Feature", "geometry": {"type": "Point", "coordinates": [127.10409370566555, 37.39335343378073]}, "properties": {"NODE_ID": "2060059504", "NODE_NAME": "화랑지하차도", "NODE_TYPE": "106"}}, {"type": "Feature", "geometry": {"type": "Point", "coordinates": [127.09771194246447, 37.39889042305238]}, "properties": {"NODE_ID": "2060289900", "NODE_NAME": "판교동 530-7", "NODE_TYPE": "101"}}, {"type": "Feature", "geometry": {"type": "Point", "coordinates": [127.09906926392685, 37.4037229396248]}, "properties": {"NODE_ID": "2060068101", "NODE_NAME": "우림W-CITY", "NODE_TYPE": "101"}}, {"type": "Feature", "geometry": {"type": "Point", "coordinates": [127.11408040681796, 37.396257137479424]}, "properties": {"NODE_ID": "2060066101", "NODE_NAME": "판교푸르지오월드마크아파트", "NODE_TYPE": "101"}}, {"type": "Feature", "geometry": {"type": "Point", "coordinates": [127.11687051955434, 37.39197019858001]}, "properties": {"NODE_ID": "2060059301", "NODE_NAME": "동판교로사거리", "NODE_TYPE": "101"}}, {"type": "Feature", "geometry": {"type": "Point", "coordinates": [127.09819552187989, 37.3926940068212]}, "properties": {"NODE_ID": "2060099405", "NODE_NAME": "낙생초등학교앞", "NODE_TYPE": "101"}}, {"type": "Feature", "geometry": {"type": "Point", "coordinates": [127.09572590586525, 37.399341981502324]}, "properties": {"NODE_ID": "2060106003", "NODE_NAME": "낙원중학교", "NODE_TYPE": "101"}}, {"type": "Feature", "geometry": {"type": "Point", "coordinates": [127.10558987538141, 37.39409108860369]}, "properties": {"NODE_ID": "2060059603", "NODE_NAME": "판교IC앞사거리", "NODE_TYPE": "101"}}, {"type": "Feature", "geometry": {"type": "Point", "coordinates": [127.11650674429146, 37.40388090140234]}, "properties": {"NODE_ID": "2060281800", "NODE_NAME": "삼평동 718-7", "NODE_TYPE": "101"}}, {"type": "Feature", "geometry": {"type": "Point", "coordinates": [127.11783948802704, 37.393296672074314]}, "properties": {"NODE_ID": "2060186400", "NODE_NAME": "백현동 544-3", "NODE_TYPE": "101"}}, {"type": "Feature", "geometry": {"type": "Point", "coordinates": [127.11120157894693, 37.39988155039098]}, "properties": {"NODE_ID": "2060304900", "NODE_NAME": "삼평동 667-7", "NODE_TYPE": "101"}}, {"type": "Feature", "geometry": {"type": "Point", "coordinates": [127.11408002523984, 37.3961834878385]}, "properties": {"NODE_ID": "2060066102", "NODE_NAME": "판교푸르지오월드마크아파트", "NODE_TYPE": "101"}}, {"type": "Feature", "geometry": {"type": "Point", "coordinates": [127.09768599165035, 37.39082183889781]}, "properties": {"NODE_ID": "2060058106", "NODE_NAME": "로저아트갤러리", "NODE_TYPE": "101"}}, {"type": "Feature", "geometry": {"type": "Point", "coordinates": [127.11687290314262, 37.39626780670467]}, "properties": {"NODE_ID": "2060065901", "NODE_NAME": "보평초교사거리", "NODE_TYPE": "101"}}, {"type": "Feature", "geometry": {"type": "Point", "coordinates": [127.11188205922953, 37.3998826317756]}, "properties": {"NODE_ID": "2060066908", "NODE_NAME": "삼평동667-7", "NODE_TYPE": "101"}}, {"type": "Feature", "geometry": {"type": "Point", "coordinates": [127.10977129233534, 37.40315865517018]}, "properties": {"NODE_ID": "2060068003", "NODE_NAME": "판교테크노14사거리", "NODE_TYPE": "101"}}, {"type": "Feature", "geometry": {"type": "Point", "coordinates": [127.10132256474786, 37.3944707814141]}, "properties": {"NODE_ID": "2060314500", "NODE_NAME": "최소노드배치점", "NODE_TYPE": "107"}}, {"type": "Feature", "geometry": {"type": "Point", "coordinates": [127.10974427903109, 37.395025650083376]}, "properties": {"NODE_ID": "2060180700", "NODE_NAME": "백현동 531-1", "NODE_TYPE": "101"}}, {"type": "Feature", "geometry": {"type": "Point", "coordinates": [127.11690517138402, 37.40268268158548]}, "properties": {"NODE_ID": "2060295900", "NODE_NAME": "삼평동 718-7", "NODE_TYPE": "101"}}, {"type": "Feature", "geometry": {"type": "Point", "coordinates": [127.09622039163361, 37.399693522788915]}, "properties": {"NODE_ID": "2060106104", "NODE_NAME": "낙원중학교", "NODE_TYPE": "101"}}, {"type": "Feature", "geometry": {"type": "Point", "coordinates": [127.0960405553368, 37.40063140568293]}, "properties": {"NODE_ID": "2060060412", "NODE_NAME": "판교박물관", "NODE_TYPE": "101"}}, {"type": "Feature", "geometry": {"type": "Point", "coordinates": [127.11838338457824, 37.39559214509676]}, "properties": {"NODE_ID": "2060108002", "NODE_NAME": "속성변화점", "NODE_TYPE": "103"}}, {"type": "Feature", "geometry": {"type": "Point", "coordinates": [127.11223413691037, 37.39780198324122]}, "properties": {"NODE_ID": "2060107802", "NODE_NAME": "속성변화점", "NODE_TYPE": "103"}}, {"type": "Feature", "geometry": {"type": "Point", "coordinates": [127.1003263393634, 37.405200376139184]}, "properties": {"NODE_ID": "2060068301", "NODE_NAME": "판교실리콘파크", "NODE_TYPE": "101"}}, {"type": "Feature", "geometry": {"type": "Point", "coordinates": [127.11039509652464, 37.39625964232639]}, "properties": {"NODE_ID": "2060066011", "NODE_NAME": "동안사거리", "NODE_TYPE": "101"}}, {"type": "Feature", "geometry": {"type": "Point", "coordinates": [127.09802571282829, 37.401031864275524]}, "properties": {"NODE_ID": "2060277100", "NODE_NAME": "판교동 509-10", "NODE_TYPE": "101"}}, {"type": "Feature", "geometry": {"type": "Point", "coordinates": [127.1052623358751, 37.402358209510524]}, "properties": {"NODE_ID": "2060310800", "NODE_NAME": "최소노드배치점", "NODE_TYPE": "107"}}, {"type": "Feature", "geometry": {"type": "Point", "coordinates": [127.1097387391479, 37.39618771405928]}, "properties": {"NODE_ID": "2060066202", "NODE_NAME": "동안사거리", "NODE_TYPE": "101"}}, {"type": "Feature", "geometry": {"type": "Point", "coordinates": [127.10021830006681, 37.39468062877274]}, "properties": {"NODE_ID": "2060106403", "NODE_NAME": "판교동558-8", "NODE_TYPE": "101"}}, {"type": "Feature", "geometry": {"type": "Point", "coordinates": [127.10165984941, 37.39111289214914]}, "properties": {"NODE_ID": "2060002905", "NODE_NAME": "판교IC(남측)", "NODE_TYPE": "106"}}, {"type": "Feature", "geometry": {"type": "Point", "coordinates": [127.11657093828481, 37.405924273591545]}, "properties": {"NODE_ID": "2060107402", "NODE_NAME": "속성변화점", "NODE_TYPE": "103"}}, {"type": "Feature", "geometry": {"type": "Point", "coordinates": [127.11948097334343, 37.403178018627464]}, "properties": {"NODE_ID": "2060043201", "NODE_NAME": "벌말지하차도(남측)", "NODE_TYPE": "104"}}, {"type": "Feature", "geometry": {"type": "Point", "coordinates": [127.11281758802825, 37.3917937265748]}, "properties": {"NODE_ID": "2060059204", "NODE_NAME": "느티나무사거리", "NODE_TYPE": "101"}}, {"type": "Feature", "geometry": {"type": "Point", "coordinates": [127.10638434733968, 37.40316529769188]}, "properties": {"NODE_ID": "2060068008", "NODE_NAME": "삼평동688-3", "NODE_TYPE": "101"}}, {"type": "Feature", "geometry": {"type": "Point", "coordinates": [127.1095909541813, 37.395025184672285]}, "properties": {"NODE_ID": "2060180600", "NODE_NAME": "백현동 531-1", "NODE_TYPE": "101"}}, {"type": "Feature", "geometry": {"type": "Point", "coordinates": [127.10172784341482, 37.392104651595176]}, "properties": {"NODE_ID": "2060114600", "NODE_NAME": "교량(북측)", "NODE_TYPE": "104"}}, {"type": "Feature", "geometry": {"type": "Point", "coordinates": [127.10259601006324, 37.40322495862627]}, "properties": {"NODE_ID": "2060067901", "NODE_NAME": "낙생고가차도(동측)", "NODE_TYPE": "104"}}, {"type": "Feature", "geometry": {"type": "Point", "coordinates": [127.11687832741524, 37.398368182519285]}, "properties": {"NODE_ID": "2060066601", "NODE_NAME": "구숯내삼거리", "NODE_TYPE": "101"}}, {"type": "Feature", "geometry": {"type": "Point", "coordinates": [127.10408880769565, 37.394980199532235]}, "properties": {"NODE_ID": "2060065802", "NODE_NAME": "판교IC고가차도(서측)", "NODE_TYPE": "104"}}, {"type": "Feature", "geometry": {"type": "Point", "coordinates": [127.11040643278521, 37.39713827381486]}, "properties": {"NODE_ID": "2060107702", "NODE_NAME": "코트야드메리어트판교호텔", "NODE_TYPE": "101"}}, {"type": "Feature", "geometry": {"type": "Point", "coordinates": [127.11616233395414, 37.404384850704545]}, "properties": {"NODE_ID": "2060109601", "NODE_NAME": "송현초교사거리", "NODE_TYPE": "101"}}, {"type": "Feature", "geometry": {"type": "Point", "coordinates": [127.09816690858324, 37.393414462736985]}, "properties": {"NODE_ID": "2060232500", "NODE_NAME": "판교동 512-4", "NODE_TYPE": "101"}}, {"type": "Feature", "geometry": {"type": "Point", "coordinates": [127.1153144927275, 37.408008823026435]}, "properties": {"NODE_ID": "2060306000", "NODE_NAME": "삼평동 709-1", "NODE_TYPE": "101"}}, {"type": "Feature", "geometry": {"type": "Point", "coordinates": [127.10635075258651, 37.39981156155937]}, "properties": {"NODE_ID": "2060060309", "NODE_NAME": "판교테크노2사거리", "NODE_TYPE": "101"}}, {"type": "Feature", "geometry": {"type": "Point", "coordinates": [127.11027021539427, 37.3972441342945]}, "properties": {"NODE_ID": "2060107704", "NODE_NAME": "코트야드메리어트판교호텔", "NODE_TYPE": "101"}}, {"type": "Feature", "geometry": {"type": "Point", "coordinates": [127.10962245589245, 37.403937059949854]}, "properties": {"NODE_ID": "2060106903", "NODE_NAME": "판교테크노14사거리", "NODE_TYPE": "101"}}, {"type": "Feature", "geometry": {"type": "Point", "coordinates": [127.11173479443057, 37.40091242159132]}, "properties": {"NODE_ID": "2060107203", "NODE_NAME": "삼평동675-1", "NODE_TYPE": "101"}}, {"type": "Feature", "geometry": {"type": "Point", "coordinates": [127.11235695043132, 37.396596257204045]}, "properties": {"NODE_ID": "2060107901", "NODE_NAME": "속성변화점", "NODE_TYPE": "103"}}, {"type": "Feature", "geometry": {"type": "Point", "coordinates": [127.11277199490188, 37.4032938513858]}, "properties": {"NODE_ID": "2060060709", "NODE_NAME": "봇들사거리", "NODE_TYPE": "101"}}, {"type": "Feature", "geometry": {"type": "Point", "coordinates": [127.1157013555105, 37.398304939009016]}, "properties": {"NODE_ID": "2060282100", "NODE_NAME": "삼평동 737-2", "NODE_TYPE": "101"}}, {"type": "Feature", "geometry": {"type": "Point", "coordinates": [127.09873397355207, 37.398229088227474]}, "properties": {"NODE_ID": "2060296600", "NODE_NAME": "판교동 509-11", "NODE_TYPE": "101"}}, {"type": "Feature", "geometry": {"type": "Point", "coordinates": [127.09722284659063, 37.40886030220255]}, "properties": {"NODE_ID": "2049141000", "NODE_NAME": "금토동 277-12", "NODE_TYPE": "101"}}, {"type": "Feature", "geometry": {"type": "Point", "coordinates": [127.09631277349088, 37.400282481645945]}, "properties": {"NODE_ID": "2060105801", "NODE_NAME": "판교동511-8", "NODE_TYPE": "101"}}, {"type": "Feature", "geometry": {"type": "Point", "coordinates": [127.10024541422413, 37.401697677025744]}, "properties": {"NODE_ID": "2060067502", "NODE_NAME": "판교디지털센터", "NODE_TYPE": "101"}}, {"type": "Feature", "geometry": {"type": "Point", "coordinates": [127.10974324565521, 37.39981286630581]}, "properties": {"NODE_ID": "2060066913", "NODE_NAME": "판교테크노3사거리", "NODE_TYPE": "101"}}, {"type": "Feature", "geometry": {"type": "Point", "coordinates": [127.10958958484633, 37.399879644852255]}, "properties": {"NODE_ID": "2060066915", "NODE_NAME": "판교테크노3사거리", "NODE_TYPE": "101"}}, {"type": "Feature", "geometry": {"type": "Point", "coordinates": [127.10483696172523, 37.40316521430989]}, "properties": {"NODE_ID": "2060060808", "NODE_NAME": "판교테크노중앙사거리", "NODE_TYPE": "101"}}, {"type": "Feature", "geometry": {"type": "Point", "coordinates": [127.09972640891881, 37.39468807803689]}, "properties": {"NODE_ID": "2060119600", "NODE_NAME": "판교동 547-1", "NODE_TYPE": "101"}}, {"type": "Feature", "geometry": {"type": "Point", "coordinates": [127.09830562027554, 37.39931856192403]}, "properties": {"NODE_ID": "2060278700", "NODE_NAME": "판교동 522-11", "NODE_TYPE": "101"}}, {"type": "Feature", "geometry": {"type": "Point", "coordinates": [127.09926445268178, 37.392672731528094]}, "properties": {"NODE_ID": "2060190800", "NODE_NAME": "판교동 563-8", "NODE_TYPE": "101"}}, {"type": "Feature", "geometry": {"type": "Point", "coordinates": [127.10701138903043, 37.39867400511126]}, "properties": {"NODE_ID": "2060311100", "NODE_NAME": "최소노드배치점", "NODE_TYPE": "107"}}, {"type": "Feature", "geometry": {"type": "Point", "coordinates": [127.10061788137041, 37.39804830543415]}, "properties": {"NODE_ID": "2060311200", "NODE_NAME": "최소노드배치점", "NODE_TYPE": "107"}}, {"type": "Feature", "geometry": {"type": "Point", "coordinates": [127.09569098630142, 37.40857760355739]}, "properties": {"NODE_ID": "2040146207", "NODE_NAME": "금토동410-374", "NODE_TYPE": "101"}}, {"type": "Feature", "geometry": {"type": "Point", "coordinates": [127.11222256566788, 37.39725431579822]}, "properties": {"NODE_ID": "2060107504", "NODE_NAME": "판교역푸르지오시티", "NODE_TYPE": "101"}}, {"type": "Feature", "geometry": {"type": "Point", "coordinates": [127.10142672487702, 37.39671858607076]}, "properties": {"NODE_ID": "2060099501", "NODE_NAME": "판교IC", "NODE_TYPE": "106"}}, {"type": "Feature", "geometry": {"type": "Point", "coordinates": [127.10963321301756, 37.40327247568964]}, "properties": {"NODE_ID": "2060068005", "NODE_NAME": "판교테크노14사거리", "NODE_TYPE": "101"}}, {"type": "Feature", "geometry": {"type": "Point", "coordinates": [127.11304305670262, 37.403176036903886]}, "properties": {"NODE_ID": "2060060707", "NODE_NAME": "봇들사거리", "NODE_TYPE": "101"}}, {"type": "Feature", "geometry": {"type": "Point", "coordinates": [127.10127326415744, 37.39987277492148]}, "properties": {"NODE_ID": "2060066801", "NODE_NAME": "판교세븐벤처밸리2단지", "NODE_TYPE": "101"}}, {"type": "Feature", "geometry": {"type": "Point", "coordinates": [127.11141424323834, 37.39371556784477]}, "properties": {"NODE_ID": "2060221700", "NODE_NAME": "백현동 537-1", "NODE_TYPE": "101"}}, {"type": "Feature", "geometry": {"type": "Point", "coordinates": [127.09805189664448, 37.39906228862159]}, "properties": {"NODE_ID": "2060304400", "NODE_NAME": "판교동 529-9", "NODE_TYPE": "101"}}, {"type": "Feature", "geometry": {"type": "Point", "coordinates": [127.10960072208321, 37.4008953359723]}, "properties": {"NODE_ID": "2060066906", "NODE_NAME": "삼환하이펙스B동", "NODE_TYPE": "101"}}]}